{
    "type": "FeatureCollection",
    "features": [
        {
            "type": "Feature",
            "geometry": {
                "type": "Point",
                "coordinates": [
                    -89.28568,
                    31.327789
                ]
            },
            "properties": {
                "name": "Train Depot",
                "stopNum": 1
            }
        },
        {
            "type": "Feature",
            "geometry": {
                "type": "Point",
                "coordinates": [
                    -89.289503,
                    31.326397
                ]
            },
            "properties": {
                "name": "Main St and W Front",
                "stopNum": 2
            }
        },
        {
            "type": "Feature",
            "geometry": {
                "type": "Point",
                "coordinates": [
                    -89.331203,
                    31.324878
                ]
            },
            "properties": {
                "name": "Hardy St and USM Rose Garden",
                "stopNum": 11
            }
        },
        {
            "type": "Feature",
            "geometry": {
                "type": "Point",
                "coordinates": [
                    -89.335847,
                    31.324901
                ]
            },
            "properties": {
                "name": "Hardy St and 31st Ave (JR Gas Station)",
                "stopNum": 12
            }
        },
        {
            "type": "Feature",
            "geometry": {
                "type": "Point",
                "coordinates": [
                    -89.339467,
                    31.324955
                ]
            },
            "properties": {
                "name": "Hardy St and Ross St (34th)",
                "stopNum": 13
            }
        },
        {
            "type": "Feature",
            "geometry": {
                "type": "Point",
                "coordinates": [
                    -89.343114,
                    31.325039
                ]
            },
            "properties": {
                "name": "Hardy St and 36th Ave",
                "stopNum": 14
            }
        },
        {
            "type": "Feature",
            "geometry": {
                "type": "Point",
                "coordinates": [
                    -89.345459,
                    31.325085
                ]
            },
            "properties": {
                "name": "Hardy St and 38th Ave",
                "stopNum": 15
            }
        },
        {
            "type": "Feature",
            "geometry": {
                "type": "Point",
                "coordinates": [
                    -89.347579,
                    31.325116
                ]
            },
            "properties": {
                "name": "Hardy St and 40th Ave",
                "stopNum": 16
            }
        },
        {
            "type": "Feature",
            "geometry": {
                "type": "Point",
                "coordinates": [
                    -89.359203,
                    31.324379
                ]
            },
            "properties": {
                "name": "Hardy St and Coco Cola Ave",
                "stopNum": 17
            }
        },
        {
            "type": "Feature",
            "geometry": {
                "type": "Point",
                "coordinates": [
                    -89.363479,
                    31.323704
                ]
            },
            "properties": {
                "name": "Hardy St (Across from McDonald's)",
                "stopNum": 18
            }
        },
        {
            "type": "Feature",
            "geometry": {
                "type": "Point",
                "coordinates": [
                    -89.36603,
                    31.324418
                ]
            },
            "properties": {
                "name": "Wesley (Green Eye Institute)",
                "stopNum": 19
            }
        },
        {
            "type": "Feature",
            "geometry": {
                "type": "Point",
                "coordinates": [
                    -89.366632,
                    31.325576
                ]
            },
            "properties": {
                "name": "Wesley (Front Entrance)",
                "stopNum": 20
            }
        },
        {
            "type": "Feature",
            "geometry": {
                "type": "Point",
                "coordinates": [
                    -89.291928,
                    31.328024
                ]
            },
            "properties": {
                "name": "Main St and New Orleans St (Federal Building)",
                "stopNum": 3
            }
        },
        {
            "type": "Feature",
            "geometry": {
                "type": "Point",
                "coordinates": [
                    -89.367701,
                    31.323973
                ]
            },
            "properties": {
                "name": "Wesley (Millsaps Dr)",
                "stopNum": 21
            }
        },
        {
            "type": "Feature",
            "geometry": {
                "type": "Point",
                "coordinates": [
                    -89.374358,
                    31.324402
                ]
            },
            "properties": {
                "name": "Turtle Creek Mall (Between Dillards and Pier 1 imports)",
                "stopNum": 22
            }
        },
        {
            "type": "Feature",
            "geometry": {
                "type": "Point",
                "coordinates": [
                    -89.375777,
                    31.32342
                ]
            },
            "properties": {
                "name": "Turtle Creek Mall (Between Dick's and Dillards)",
                "stopNum": 23
            }
        },
        {
            "type": "Feature",
            "geometry": {
                "type": "Point",
                "coordinates": [
                    -89.37805,
                    31.327395
                ]
            },
            "properties": {
                "name": "Turtle Creek Mall (In front of Rio Grande)",
                "stopNum": 24
            }
        },
        {
            "type": "Feature",
            "geometry": {
                "type": "Point",
                "coordinates": [
                    -89.381356,
                    31.323627
                ]
            },
            "properties": {
                "name": "Cross Creek Parkway (Across Bed Bath and Beyond)",
                "stopNum": 25
            }
        },
        {
            "type": "Feature",
            "geometry": {
                "type": "Point",
                "coordinates": [
                    -89.379263,
                    31.320512
                ]
            },
            "properties": {
                "name": "Walmart @ 98",
                "stopNum": 26
            }
        },
        {
            "type": "Feature",
            "geometry": {
                "type": "Point",
                "coordinates": [
                    -89.375148,
                    31.321993
                ]
            },
            "properties": {
                "name": "Hardy St (Lowes)",
                "stopNum": 27
            }
        },
        {
            "type": "Feature",
            "geometry": {
                "type": "Point",
                "coordinates": [
                    -89.371537,
                    31.322277
                ]
            },
            "properties": {
                "name": "Hardy St (TJ Max)",
                "stopNum": 28
            }
        },
        {
            "type": "Feature",
            "geometry": {
                "type": "Point",
                "coordinates": [
                    -89.366713,
                    31.322729
                ]
            },
            "properties": {
                "name": "Hardy St (Shell Gas station)",
                "stopNum": 29
            }
        },
        {
            "type": "Feature",
            "geometry": {
                "type": "Point",
                "coordinates": [
                    -89.363111,
                    31.323228
                ]
            },
            "properties": {
                "name": "Hardy St (McDonald's)",
                "stopNum": 30
            }
        },
        {
            "type": "Feature",
            "geometry": {
                "type": "Point",
                "coordinates": [
                    -89.293734,
                    31.327993
                ]
            },
            "properties": {
                "name": "On McLeod St (By FireStation No.1)",
                "stopNum": 4
            }
        },
        {
            "type": "Feature",
            "geometry": {
                "type": "Point",
                "coordinates": [
                    -89.357856,
                    31.323036
                ]
            },
            "properties": {
                "name": "Hardy St on Service Rd (Best Buy)",
                "stopNum": 31
            }
        },
        {
            "type": "Feature",
            "geometry": {
                "type": "Point",
                "coordinates": [
                    -89.355861,
                    31.32329
                ]
            },
            "properties": {
                "name": "Georgia Blue",
                "stopNum": 32
            }
        },
        {
            "type": "Feature",
            "geometry": {
                "type": "Point",
                "coordinates": [
                    -89.344507,
                    31.324832
                ]
            },
            "properties": {
                "name": "Hardy St at Midtown Market Shopping Center",
                "stopNum": 33
            }
        },
        {
            "type": "Feature",
            "geometry": {
                "type": "Point",
                "coordinates": [
                    -89.340518,
                    31.32474
                ]
            },
            "properties": {
                "name": "Hardy St and 34th Ave",
                "stopNum": 34
            }
        },
        {
            "type": "Feature",
            "geometry": {
                "type": "Point",
                "coordinates": [
                    -89.334161,
                    31.324716
                ]
            },
            "properties": {
                "name": "Hardy St and 30th Ave",
                "stopNum": 35
            }
        },
        {
            "type": "Feature",
            "geometry": {
                "type": "Point",
                "coordinates": [
                    -89.332141,
                    31.323932
                ]
            },
            "properties": {
                "name": "Hardy St and 29th Ave",
                "stopNum": 36
            }
        },
        {
            "type": "Feature",
            "geometry": {
                "type": "Point",
                "coordinates": [
                    -89.330701,
                    31.321471
                ]
            },
            "properties": {
                "name": "28th Ave @ Pine Grove Health Center",
                "stopNum": 37
            }
        },
        {
            "type": "Feature",
            "geometry": {
                "type": "Point",
                "coordinates": [
                    -89.330948,
                    31.324625
                ]
            },
            "properties": {
                "name": "28th Ave and Hardy",
                "stopNum": 38
            }
        },
        {
            "type": "Feature",
            "geometry": {
                "type": "Point",
                "coordinates": [
                    -89.327627,
                    31.324699
                ]
            },
            "properties": {
                "name": "Hardy St and 25th Ave (Return)",
                "stopNum": 39
            }
        },
        {
            "type": "Feature",
            "geometry": {
                "type": "Point",
                "coordinates": [
                    -89.322875,
                    31.324602
                ]
            },
            "properties": {
                "name": "Hardy and 21st Ave",
                "stopNum": 40
            }
        },
        {
            "type": "Feature",
            "geometry": {
                "type": "Point",
                "coordinates": [
                    -89.296941,
                    31.324909
                ]
            },
            "properties": {
                "name": "On Hardy St (Main Library)",
                "stopNum": 5
            }
        },
        {
            "type": "Feature",
            "geometry": {
                "type": "Point",
                "coordinates": [
                    -89.317971,
                    31.324625
                ]
            },
            "properties": {
                "name": "Hardy St and Park Ave (Shelter)",
                "stopNum": 41
            }
        },
        {
            "type": "Feature",
            "geometry": {
                "type": "Point",
                "coordinates": [
                    -89.314674,
                    31.324617
                ]
            },
            "properties": {
                "name": "Hardy and 17th Ave. (Zoo)",
                "stopNum": 42
            }
        },
        {
            "type": "Feature",
            "geometry": {
                "type": "Point",
                "coordinates": [
                    -89.309544,
                    31.324648
                ]
            },
            "properties": {
                "name": "Hardy St and Hutchinson Ave. (Return)",
                "stopNum": 43
            }
        },
        {
            "type": "Feature",
            "geometry": {
                "type": "Point",
                "coordinates": [
                    -89.303651,
                    31.324655
                ]
            },
            "properties": {
                "name": "Hardy St and Pinehurst St",
                "stopNum": 44
            }
        },
        {
            "type": "Feature",
            "geometry": {
                "type": "Point",
                "coordinates": [
                    -89.299941,
                    31.324702
                ]
            },
            "properties": {
                "name": "Hardy St and Mamie St",
                "stopNum": 45
            }
        },
        {
            "type": "Feature",
            "geometry": {
                "type": "Point",
                "coordinates": [
                    -89.295692,
                    31.324709
                ]
            },
            "properties": {
                "name": "Hardy St and 1st Ave",
                "stopNum": 46
            }
        },
        {
            "type": "Feature",
            "geometry": {
                "type": "Point",
                "coordinates": [
                    -89.29077,
                    31.325477
                ]
            },
            "properties": {
                "name": "Front St and Forrest St.",
                "stopNum": 47
            }
        },
        {
            "type": "Feature",
            "geometry": {
                "type": "Point",
                "coordinates": [
                    -89.289224,
                    31.325968
                ]
            },
            "properties": {
                "name": "Main St and Short St",
                "stopNum": 48
            }
        },
        {
            "type": "Feature",
            "geometry": {
                "type": "Point",
                "coordinates": [
                    -89.285649,
                    31.326374
                ]
            },
            "properties": {
                "name": "Buschman St and River Av",
                "stopNum": 49
            }
        },
        {
            "type": "Feature",
            "geometry": {
                "type": "Point",
                "coordinates": [
                    -89.309931,
                    31.324847
                ]
            },
            "properties": {
                "name": "Hardy St and Hutchinson Ave.",
                "stopNum": 6
            }
        },
        {
            "type": "Feature",
            "geometry": {
                "type": "Point",
                "coordinates": [
                    -89.314404,
                    31.324847
                ]
            },
            "properties": {
                "name": "Hardy and 17th Ave. (Across Zoo)",
                "stopNum": 7
            }
        },
        {
            "type": "Feature",
            "geometry": {
                "type": "Point",
                "coordinates": [
                    -89.317746,
                    31.324847
                ]
            },
            "properties": {
                "name": "Hardy St and Park Ave.",
                "stopNum": 8
            }
        },
        {
            "type": "Feature",
            "geometry": {
                "type": "Point",
                "coordinates": [
                    -89.322696,
                    31.324855
                ]
            },
            "properties": {
                "name": "Hardy St and 20th Ave",
                "stopNum": 9
            }
        },
        {
            "type": "Feature",
            "geometry": {
                "type": "Point",
                "coordinates": [
                    -89.32741,
                    31.324904
                ]
            },
            "properties": {
                "name": "Hardy St and 25th Ave",
                "stopNum": 10
            }
        },
        {
            "type": "Feature",
            "properties": {},
            "geometry": {
                "type": "LineString",
                "coordinates": [
                    [
                        -89.285638,
                        31.327758
                    ],
                    [
                        -89.285638,
                        31.327758
                    ],
                    [
                        -89.285639,
                        31.327758
                    ],
                    [
                        -89.285769,
                        31.327635
                    ],
                    [
                        -89.28577,
                        31.327635
                    ],
                    [
                        -89.285742,
                        31.327607
                    ],
                    [
                        -89.285743,
                        31.327608
                    ],
                    [
                        -89.285667,
                        31.327532
                    ],
                    [
                        -89.285667,
                        31.327533
                    ],
                    [
                        -89.285619,
                        31.327484
                    ],
                    [
                        -89.28562,
                        31.327486
                    ],
                    [
                        -89.286016,
                        31.327078
                    ],
                    [
                        -89.286278,
                        31.326862
                    ],
                    [
                        -89.286547,
                        31.326726
                    ],
                    [
                        -89.287055,
                        31.326262
                    ],
                    [
                        -89.288235,
                        31.325291
                    ],
                    [
                        -89.291017,
                        31.327592
                    ],
                    [
                        -89.293202,
                        31.328451
                    ],
                    [
                        -89.294336,
                        31.327125
                    ],
                    [
                        -89.294461,
                        31.326865
                    ],
                    [
                        -89.294434,
                        31.324909
                    ],
                    [
                        -89.294438,
                        31.324814
                    ],
                    [
                        -89.296512,
                        31.324782
                    ],
                    [
                        -89.296756,
                        31.324828
                    ],
                    [
                        -89.297043,
                        31.324777
                    ],
                    [
                        -89.297126,
                        31.324781
                    ],
                    [
                        -89.297255,
                        31.324815
                    ],
                    [
                        -89.297955,
                        31.324813
                    ],
                    [
                        -89.301035,
                        31.324798
                    ],
                    [
                        -89.310438,
                        31.324763
                    ],
                    [
                        -89.314598,
                        31.32475
                    ],
                    [
                        -89.321621,
                        31.324727
                    ],
                    [
                        -89.324843,
                        31.324764
                    ],
                    [
                        -89.325779,
                        31.324751
                    ],
                    [
                        -89.327792,
                        31.324751
                    ],
                    [
                        -89.331874,
                        31.324832
                    ],
                    [
                        -89.33679,
                        31.32487
                    ],
                    [
                        -89.342567,
                        31.324958
                    ],
                    [
                        -89.34605,
                        31.325025
                    ],
                    [
                        -89.347655,
                        31.325074
                    ],
                    [
                        -89.347862,
                        31.325021
                    ],
                    [
                        -89.348172,
                        31.325042
                    ],
                    [
                        -89.352091,
                        31.325055
                    ],
                    [
                        -89.353718,
                        31.325016
                    ],
                    [
                        -89.354595,
                        31.324927
                    ],
                    [
                        -89.363613,
                        31.32353
                    ],
                    [
                        -89.365927,
                        31.323156
                    ],
                    [
                        -89.366079,
                        31.323179
                    ],
                    [
                        -89.366234,
                        31.323255
                    ],
                    [
                        -89.366293,
                        31.3235
                    ],
                    [
                        -89.366042,
                        31.324568
                    ],
                    [
                        -89.365856,
                        31.325324
                    ],
                    [
                        -89.367566,
                        31.325643
                    ],
                    [
                        -89.367617,
                        31.325616
                    ],
                    [
                        -89.367608,
                        31.323254
                    ],
                    [
                        -89.367708,
                        31.322976
                    ],
                    [
                        -89.372889,
                        31.322531
                    ],
                    [
                        -89.372995,
                        31.322519
                    ],
                    [
                        -89.373328,
                        31.322714
                    ],
                    [
                        -89.373424,
                        31.322823
                    ],
                    [
                        -89.373436,
                        31.323384
                    ],
                    [
                        -89.373504,
                        31.325203
                    ],
                    [
                        -89.374122,
                        31.32519
                    ],
                    [
                        -89.374279,
                        31.325197
                    ],
                    [
                        -89.374291,
                        31.324371
                    ],
                    [
                        -89.374291,
                        31.32384
                    ],
                    [
                        -89.374551,
                        31.323466
                    ],
                    [
                        -89.374749,
                        31.323399
                    ],
                    [
                        -89.375904,
                        31.323298
                    ],
                    [
                        -89.3768,
                        31.323237
                    ],
                    [
                        -89.376965,
                        31.32325
                    ],
                    [
                        -89.377145,
                        31.323308
                    ],
                    [
                        -89.377403,
                        31.323522
                    ],
                    [
                        -89.37748,
                        31.323779
                    ],
                    [
                        -89.377485,
                        31.324025
                    ],
                    [
                        -89.37751,
                        31.324291
                    ],
                    [
                        -89.377548,
                        31.324815
                    ],
                    [
                        -89.377636,
                        31.324968
                    ],
                    [
                        -89.377909,
                        31.325189
                    ],
                    [
                        -89.378038,
                        31.325388
                    ],
                    [
                        -89.378066,
                        31.325609
                    ],
                    [
                        -89.37808,
                        31.327711
                    ],
                    [
                        -89.378076,
                        31.327765
                    ],
                    [
                        -89.379303,
                        31.327765
                    ],
                    [
                        -89.379325,
                        31.327595
                    ],
                    [
                        -89.379301,
                        31.326627
                    ],
                    [
                        -89.379363,
                        31.326394
                    ],
                    [
                        -89.379918,
                        31.325888
                    ],
                    [
                        -89.380922,
                        31.325089
                    ],
                    [
                        -89.38112,
                        31.324906
                    ],
                    [
                        -89.38112,
                        31.324906
                    ],
                    [
                        -89.381189,
                        31.324762
                    ],
                    [
                        -89.381189,
                        31.324764
                    ],
                    [
                        -89.381219,
                        31.324577
                    ],
                    [
                        -89.38122,
                        31.324581
                    ],
                    [
                        -89.381232,
                        31.324365
                    ],
                    [
                        -89.381234,
                        31.324369
                    ],
                    [
                        -89.38124,
                        31.323924
                    ],
                    [
                        -89.381238,
                        31.323928
                    ],
                    [
                        -89.381264,
                        31.323577
                    ],
                    [
                        -89.381265,
                        31.323583
                    ],
                    [
                        -89.381244,
                        31.321814
                    ],
                    [
                        -89.381203,
                        31.321443
                    ],
                    [
                        -89.381203,
                        31.321443
                    ],
                    [
                        -89.381154,
                        31.321249
                    ],
                    [
                        -89.381155,
                        31.321251
                    ],
                    [
                        -89.381068,
                        31.321031
                    ],
                    [
                        -89.381068,
                        31.321031
                    ],
                    [
                        -89.380992,
                        31.320825
                    ],
                    [
                        -89.380992,
                        31.320826
                    ],
                    [
                        -89.380995,
                        31.320701
                    ],
                    [
                        -89.380995,
                        31.320702
                    ],
                    [
                        -89.381002,
                        31.320407
                    ],
                    [
                        -89.381003,
                        31.320408
                    ],
                    [
                        -89.380896,
                        31.320402
                    ],
                    [
                        -89.380896,
                        31.320403
                    ],
                    [
                        -89.380592,
                        31.320399
                    ],
                    [
                        -89.380592,
                        31.3204
                    ],
                    [
                        -89.380193,
                        31.320416
                    ],
                    [
                        -89.380194,
                        31.320418
                    ],
                    [
                        -89.379211,
                        31.320415
                    ],
                    [
                        -89.378286,
                        31.320445
                    ],
                    [
                        -89.378177,
                        31.320906
                    ],
                    [
                        -89.378175,
                        31.321706
                    ],
                    [
                        -89.378129,
                        31.321807
                    ],
                    [
                        -89.377421,
                        31.321882
                    ],
                    [
                        -89.372885,
                        31.322222
                    ],
                    [
                        -89.366676,
                        31.322783
                    ],
                    [
                        -89.36194,
                        31.32349
                    ],
                    [
                        -89.359507,
                        31.323895
                    ],
                    [
                        -89.359303,
                        31.323902
                    ],
                    [
                        -89.359265,
                        31.323862
                    ],
                    [
                        -89.359254,
                        31.323052
                    ],
                    [
                        -89.357862,
                        31.323046
                    ],
                    [
                        -89.356326,
                        31.323064
                    ],
                    [
                        -89.356288,
                        31.322463
                    ],
                    [
                        -89.355963,
                        31.322472
                    ],
                    [
                        -89.35594,
                        31.322477
                    ],
                    [
                        -89.355922,
                        31.323401
                    ],
                    [
                        -89.356242,
                        31.323397
                    ],
                    [
                        -89.356278,
                        31.323409
                    ],
                    [
                        -89.356275,
                        31.323595
                    ],
                    [
                        -89.356284,
                        31.324377
                    ],
                    [
                        -89.355201,
                        31.324562
                    ],
                    [
                        -89.353623,
                        31.324827
                    ],
                    [
                        -89.353543,
                        31.324907
                    ],
                    [
                        -89.35344,
                        31.324957
                    ],
                    [
                        -89.352057,
                        31.324986
                    ],
                    [
                        -89.34897,
                        31.325004
                    ],
                    [
                        -89.348047,
                        31.324979
                    ],
                    [
                        -89.347813,
                        31.324948
                    ],
                    [
                        -89.34695,
                        31.3249
                    ],
                    [
                        -89.344522,
                        31.324856
                    ],
                    [
                        -89.340525,
                        31.324779
                    ],
                    [
                        -89.336105,
                        31.32471
                    ],
                    [
                        -89.332878,
                        31.324681
                    ],
                    [
                        -89.33283,
                        31.324673
                    ],
                    [
                        -89.332803,
                        31.324578
                    ],
                    [
                        -89.332669,
                        31.324368
                    ],
                    [
                        -89.332555,
                        31.324229
                    ],
                    [
                        -89.332542,
                        31.324037
                    ],
                    [
                        -89.332559,
                        31.32297
                    ],
                    [
                        -89.332549,
                        31.321065
                    ],
                    [
                        -89.331288,
                        31.321039
                    ],
                    [
                        -89.331274,
                        31.323104
                    ],
                    [
                        -89.331273,
                        31.324637
                    ],
                    [
                        -89.330017,
                        31.324629
                    ],
                    [
                        -89.327627,
                        31.3247
                    ],
                    [
                        -89.32452,
                        31.324655
                    ],
                    [
                        -89.324443,
                        31.324696
                    ],
                    [
                        -89.323792,
                        31.324699
                    ],
                    [
                        -89.321468,
                        31.324705
                    ],
                    [
                        -89.316686,
                        31.324686
                    ],
                    [
                        -89.312999,
                        31.32471
                    ],
                    [
                        -89.309126,
                        31.324721
                    ],
                    [
                        -89.303351,
                        31.324733
                    ],
                    [
                        -89.298146,
                        31.324748
                    ],
                    [
                        -89.297874,
                        31.324737
                    ],
                    [
                        -89.297581,
                        31.324725
                    ],
                    [
                        -89.297436,
                        31.324722
                    ],
                    [
                        -89.29737,
                        31.324709
                    ],
                    [
                        -89.297362,
                        31.324593
                    ],
                    [
                        -89.297364,
                        31.324598
                    ],
                    [
                        -89.297274,
                        31.324532
                    ],
                    [
                        -89.297274,
                        31.324535
                    ],
                    [
                        -89.29721,
                        31.324532
                    ],
                    [
                        -89.297212,
                        31.324534
                    ],
                    [
                        -89.297116,
                        31.324533
                    ],
                    [
                        -89.297117,
                        31.324535
                    ],
                    [
                        -89.297051,
                        31.324588
                    ],
                    [
                        -89.297051,
                        31.32459
                    ],
                    [
                        -89.297007,
                        31.324666
                    ],
                    [
                        -89.297007,
                        31.324668
                    ],
                    [
                        -89.29689,
                        31.324705
                    ],
                    [
                        -89.296891,
                        31.324707
                    ],
                    [
                        -89.296762,
                        31.324725
                    ],
                    [
                        -89.296762,
                        31.324726
                    ],
                    [
                        -89.29661,
                        31.324737
                    ],
                    [
                        -89.296621,
                        31.324741
                    ],
                    [
                        -89.29651,
                        31.324706
                    ],
                    [
                        -89.29651,
                        31.324707
                    ],
                    [
                        -89.296366,
                        31.32472
                    ],
                    [
                        -89.296366,
                        31.324722
                    ],
                    [
                        -89.296158,
                        31.324753
                    ],
                    [
                        -89.295488,
                        31.324751
                    ],
                    [
                        -89.295488,
                        31.324751
                    ],
                    [
                        -89.29426,
                        31.324722
                    ],
                    [
                        -89.292369,
                        31.3247
                    ],
                    [
                        -89.291659,
                        31.324718
                    ],
                    [
                        -89.290642,
                        31.32559
                    ],
                    [
                        -89.289765,
                        31.326317
                    ],
                    [
                        -89.289663,
                        31.326398
                    ],
                    [
                        -89.289645,
                        31.326406
                    ],
                    [
                        -89.289173,
                        31.326015
                    ],
                    [
                        -89.287648,
                        31.324731
                    ],
                    [
                        -89.286627,
                        31.325599
                    ],
                    [
                        -89.285012,
                        31.327003
                    ],
                    [
                        -89.285542,
                        31.327438
                    ],
                    [
                        -89.285586,
                        31.32748
                    ],
                    [
                        -89.285492,
                        31.327574
                    ],
                    [
                        -89.285349,
                        31.327705
                    ],
                    [
                        -89.285498,
                        31.327822
                    ],
                    [
                        -89.285541,
                        31.32785
                    ],
                    [
                        -89.285639,
                        31.327758
                    ]
                ]
            }
        }
    ]
}