{
    "type": "FeatureCollection",
    "features": [
        {
            "type": "Feature",
            "geometry": {
                "type": "Point",
                "coordinates": [
                    -89.28568,
                    31.327789
                ]
            },
            "properties": {
                "name": "Train Depot",
                "stopNum": 1
            }
        },
        {
            "type": "Feature",
            "geometry": {
                "type": "Point",
                "coordinates": [
                    -89.287491,
                    31.330694
                ]
            },
            "properties": {
                "name": "Briarfield Apt and E 2nd",
                "stopNum": 2
            }
        },
        {
            "type": "Feature",
            "geometry": {
                "type": "Point",
                "coordinates": [
                    -89.29439,
                    31.342902
                ]
            },
            "properties": {
                "name": "Coit st and Hwy 42",
                "stopNum": 11
            }
        },
        {
            "type": "Feature",
            "geometry": {
                "type": "Point",
                "coordinates": [
                    -89.301334,
                    31.342526
                ]
            },
            "properties": {
                "name": "US Hwy 42 and Redus St",
                "stopNum": 12
            }
        },
        {
            "type": "Feature",
            "geometry": {
                "type": "Point",
                "coordinates": [
                    -89.307352,
                    31.342603
                ]
            },
            "properties": {
                "name": "US Hwy 42 and Glendale Ave",
                "stopNum": 13
            }
        },
        {
            "type": "Feature",
            "geometry": {
                "type": "Point",
                "coordinates": [
                    -89.31497,
                    31.346469
                ]
            },
            "properties": {
                "name": "US Hwy 42 and Pritchard St",
                "stopNum": 14
            }
        },
        {
            "type": "Feature",
            "geometry": {
                "type": "Point",
                "coordinates": [
                    -89.324483,
                    31.346799
                ]
            },
            "properties": {
                "name": "US Hwy 42 and Cahal St",
                "stopNum": 15
            }
        },
        {
            "type": "Feature",
            "geometry": {
                "type": "Point",
                "coordinates": [
                    -89.331535,
                    31.347359
                ]
            },
            "properties": {
                "name": "US Hwy 42 at Health Dept.",
                "stopNum": 16
            }
        },
        {
            "type": "Feature",
            "geometry": {
                "type": "Point",
                "coordinates": [
                    -89.33511,
                    31.348449
                ]
            },
            "properties": {
                "name": "Service Dr and N 31st Ave",
                "stopNum": 17
            }
        },
        {
            "type": "Feature",
            "geometry": {
                "type": "Point",
                "coordinates": [
                    -89.335317,
                    31.347689
                ]
            },
            "properties": {
                "name": "N 31st and Hwy 49",
                "stopNum": 18
            }
        },
        {
            "type": "Feature",
            "geometry": {
                "type": "Point",
                "coordinates": [
                    -89.337644,
                    31.346776
                ]
            },
            "properties": {
                "name": "Campbell Dr at Mark Apartment",
                "stopNum": 19
            }
        },
        {
            "type": "Feature",
            "geometry": {
                "type": "Point",
                "coordinates": [
                    -89.343222,
                    31.346753
                ]
            },
            "properties": {
                "name": "Campbell Dr and Overlook Apartments",
                "stopNum": 20
            }
        },
        {
            "type": "Feature",
            "geometry": {
                "type": "Point",
                "coordinates": [
                    -89.289925,
                    31.330019
                ]
            },
            "properties": {
                "name": "E 2nd St and Mobile St",
                "stopNum": 3
            }
        },
        {
            "type": "Feature",
            "geometry": {
                "type": "Point",
                "coordinates": [
                    -89.348396,
                    31.345633
                ]
            },
            "properties": {
                "name": "Beverly Hills Dr and Plantation Apartments",
                "stopNum": 21
            }
        },
        {
            "type": "Feature",
            "geometry": {
                "type": "Point",
                "coordinates": [
                    -89.343995,
                    31.33958
                ]
            },
            "properties": {
                "name": "Beverly Hills and 37th",
                "stopNum": 22
            }
        },
        {
            "type": "Feature",
            "geometry": {
                "type": "Point",
                "coordinates": [
                    -89.335551,
                    31.335659
                ]
            },
            "properties": {
                "name": "W 7th St and N 31st Ave",
                "stopNum": 23
            }
        },
        {
            "type": "Feature",
            "geometry": {
                "type": "Point",
                "coordinates": [
                    -89.329577,
                    31.335598
                ]
            },
            "properties": {
                "name": "W 7th St and Service Dr (Hillcrest Lot)",
                "stopNum": 24
            }
        },
        {
            "type": "Feature",
            "geometry": {
                "type": "Point",
                "coordinates": [
                    -89.32787,
                    31.335644
                ]
            },
            "properties": {
                "name": "W 7th St and 25th Ave",
                "stopNum": 25
            }
        },
        {
            "type": "Feature",
            "geometry": {
                "type": "Point",
                "coordinates": [
                    -89.319588,
                    31.33569
                ]
            },
            "properties": {
                "name": "W 7th St and 19th St",
                "stopNum": 26
            }
        },
        {
            "type": "Feature",
            "geometry": {
                "type": "Point",
                "coordinates": [
                    -89.313686,
                    31.335705
                ]
            },
            "properties": {
                "name": "W 7th St and Oliver Av",
                "stopNum": 27
            }
        },
        {
            "type": "Feature",
            "geometry": {
                "type": "Point",
                "coordinates": [
                    -89.305879,
                    31.335705
                ]
            },
            "properties": {
                "name": "W 7th St and North St",
                "stopNum": 28
            }
        },
        {
            "type": "Feature",
            "geometry": {
                "type": "Point",
                "coordinates": [
                    -89.299259,
                    31.335651
                ]
            },
            "properties": {
                "name": "W 7th St and Main St",
                "stopNum": 29
            }
        },
        {
            "type": "Feature",
            "geometry": {
                "type": "Point",
                "coordinates": [
                    -89.296752,
                    31.332168
                ]
            },
            "properties": {
                "name": "Main St and 4th St",
                "stopNum": 30
            }
        },
        {
            "type": "Feature",
            "geometry": {
                "type": "Point",
                "coordinates": [
                    -89.289925,
                    31.332037
                ]
            },
            "properties": {
                "name": "Mobile St and E 4th St",
                "stopNum": 4
            }
        },
        {
            "type": "Feature",
            "geometry": {
                "type": "Point",
                "coordinates": [
                    -89.291839,
                    31.327817
                ]
            },
            "properties": {
                "name": "Main St and Eaton St",
                "stopNum": 31
            }
        },
        {
            "type": "Feature",
            "geometry": {
                "type": "Point",
                "coordinates": [
                    -89.289224,
                    31.325968
                ]
            },
            "properties": {
                "name": "Main St and Short St",
                "stopNum": 32
            }
        },
        {
            "type": "Feature",
            "geometry": {
                "type": "Point",
                "coordinates": [
                    -89.289952,
                    31.33569
                ]
            },
            "properties": {
                "name": "Mobile St and E 7th St",
                "stopNum": 5
            }
        },
        {
            "type": "Feature",
            "geometry": {
                "type": "Point",
                "coordinates": [
                    -89.284418,
                    31.335636
                ]
            },
            "properties": {
                "name": "E 7th St and Fairley St",
                "stopNum": 6
            }
        },
        {
            "type": "Feature",
            "geometry": {
                "type": "Point",
                "coordinates": [
                    -89.287203,
                    31.338452
                ]
            },
            "properties": {
                "name": "E 9th St and Bouie St",
                "stopNum": 7
            }
        },
        {
            "type": "Feature",
            "geometry": {
                "type": "Point",
                "coordinates": [
                    -89.289898,
                    31.338283
                ]
            },
            "properties": {
                "name": "E 9th St and Mobile St",
                "stopNum": 8
            }
        },
        {
            "type": "Feature",
            "geometry": {
                "type": "Point",
                "coordinates": [
                    -89.292378,
                    31.338291
                ]
            },
            "properties": {
                "name": "E 9th St and Memphis",
                "stopNum": 9
            }
        },
        {
            "type": "Feature",
            "geometry": {
                "type": "Point",
                "coordinates": [
                    -89.294345,
                    31.340592
                ]
            },
            "properties": {
                "name": "Coit St and Lula",
                "stopNum": 10
            }
        },
        {
            "type": "Feature",
            "properties": {},
            "geometry": {
                "type": "LineString",
                "coordinates": [
                    [
                        -89.285691,
                        31.327761
                    ],
                    [
                        -89.285774,
                        31.327655
                    ],
                    [
                        -89.28579,
                        31.327623
                    ],
                    [
                        -89.285658,
                        31.327517
                    ],
                    [
                        -89.28564,
                        31.327494
                    ],
                    [
                        -89.285792,
                        31.327377
                    ],
                    [
                        -89.285907,
                        31.32726
                    ],
                    [
                        -89.286022,
                        31.327117
                    ],
                    [
                        -89.286137,
                        31.326992
                    ],
                    [
                        -89.286274,
                        31.326872
                    ],
                    [
                        -89.286386,
                        31.326843
                    ],
                    [
                        -89.286557,
                        31.326729
                    ],
                    [
                        -89.287072,
                        31.326274
                    ],
                    [
                        -89.288405,
                        31.327144
                    ],
                    [
                        -89.288703,
                        31.327406
                    ],
                    [
                        -89.289001,
                        31.327664
                    ],
                    [
                        -89.289301,
                        31.327937
                    ],
                    [
                        -89.289326,
                        31.327962
                    ],
                    [
                        -89.288796,
                        31.328418
                    ],
                    [
                        -89.288638,
                        31.328532
                    ],
                    [
                        -89.288386,
                        31.328634
                    ],
                    [
                        -89.288095,
                        31.328819
                    ],
                    [
                        -89.287614,
                        31.32923
                    ],
                    [
                        -89.287266,
                        31.329505
                    ],
                    [
                        -89.286192,
                        31.33048
                    ],
                    [
                        -89.286244,
                        31.330568
                    ],
                    [
                        -89.286852,
                        31.331069
                    ],
                    [
                        -89.28689,
                        31.331105
                    ],
                    [
                        -89.287612,
                        31.330486
                    ],
                    [
                        -89.288285,
                        31.329899
                    ],
                    [
                        -89.288326,
                        31.329919
                    ],
                    [
                        -89.28839,
                        31.329963
                    ],
                    [
                        -89.288554,
                        31.329978
                    ],
                    [
                        -89.288888,
                        31.329967
                    ],
                    [
                        -89.289814,
                        31.329945
                    ],
                    [
                        -89.289932,
                        31.32993
                    ],
                    [
                        -89.289965,
                        31.329908
                    ],
                    [
                        -89.289973,
                        31.330094
                    ],
                    [
                        -89.289968,
                        31.330616
                    ],
                    [
                        -89.28997,
                        31.33177
                    ],
                    [
                        -89.289973,
                        31.33206
                    ],
                    [
                        -89.289965,
                        31.332397
                    ],
                    [
                        -89.28997,
                        31.333373
                    ],
                    [
                        -89.289965,
                        31.33489
                    ],
                    [
                        -89.289973,
                        31.335689
                    ],
                    [
                        -89.288787,
                        31.33568
                    ],
                    [
                        -89.286799,
                        31.335676
                    ],
                    [
                        -89.284395,
                        31.335691
                    ],
                    [
                        -89.284323,
                        31.335689
                    ],
                    [
                        -89.28431,
                        31.336108
                    ],
                    [
                        -89.284297,
                        31.336534
                    ],
                    [
                        -89.284308,
                        31.337752
                    ],
                    [
                        -89.284295,
                        31.338368
                    ],
                    [
                        -89.284301,
                        31.3384
                    ],
                    [
                        -89.285751,
                        31.338374
                    ],
                    [
                        -89.287236,
                        31.338372
                    ],
                    [
                        -89.287652,
                        31.338363
                    ],
                    [
                        -89.288014,
                        31.338346
                    ],
                    [
                        -89.288175,
                        31.338337
                    ],
                    [
                        -89.288412,
                        31.338304
                    ],
                    [
                        -89.288714,
                        31.338256
                    ],
                    [
                        -89.289143,
                        31.338236
                    ],
                    [
                        -89.289912,
                        31.338214
                    ],
                    [
                        -89.290181,
                        31.338206
                    ],
                    [
                        -89.292383,
                        31.338199
                    ],
                    [
                        -89.29365,
                        31.338199
                    ],
                    [
                        -89.29433,
                        31.33819
                    ],
                    [
                        -89.294353,
                        31.33819
                    ],
                    [
                        -89.29436,
                        31.338874
                    ],
                    [
                        -89.294366,
                        31.339496
                    ],
                    [
                        -89.294401,
                        31.339938
                    ],
                    [
                        -89.29443,
                        31.340091
                    ],
                    [
                        -89.294417,
                        31.340622
                    ],
                    [
                        -89.294391,
                        31.342027
                    ],
                    [
                        -89.294394,
                        31.342918
                    ],
                    [
                        -89.294401,
                        31.34301
                    ],
                    [
                        -89.294907,
                        31.343174
                    ],
                    [
                        -89.295379,
                        31.343318
                    ],
                    [
                        -89.295877,
                        31.343434
                    ],
                    [
                        -89.296098,
                        31.343478
                    ],
                    [
                        -89.29636,
                        31.343517
                    ],
                    [
                        -89.297044,
                        31.343581
                    ],
                    [
                        -89.297635,
                        31.343581
                    ],
                    [
                        -89.298202,
                        31.34354
                    ],
                    [
                        -89.299046,
                        31.343382
                    ],
                    [
                        -89.299661,
                        31.343196
                    ],
                    [
                        -89.300194,
                        31.342987
                    ],
                    [
                        -89.30022,
                        31.342985
                    ],
                    [
                        -89.300263,
                        31.34304
                    ],
                    [
                        -89.300358,
                        31.343079
                    ],
                    [
                        -89.300854,
                        31.343101
                    ],
                    [
                        -89.301352,
                        31.343097
                    ],
                    [
                        -89.301416,
                        31.343097
                    ],
                    [
                        -89.301424,
                        31.342676
                    ],
                    [
                        -89.301426,
                        31.34237
                    ],
                    [
                        -89.30143,
                        31.342309
                    ],
                    [
                        -89.302095,
                        31.341906
                    ],
                    [
                        -89.302526,
                        31.34166
                    ],
                    [
                        -89.302634,
                        31.34162
                    ],
                    [
                        -89.302775,
                        31.341583
                    ],
                    [
                        -89.302898,
                        31.341559
                    ],
                    [
                        -89.303171,
                        31.341554
                    ],
                    [
                        -89.303964,
                        31.34164
                    ],
                    [
                        -89.305335,
                        31.341868
                    ],
                    [
                        -89.305968,
                        31.341984
                    ],
                    [
                        -89.306666,
                        31.342212
                    ],
                    [
                        -89.306984,
                        31.342336
                    ],
                    [
                        -89.307418,
                        31.34254
                    ],
                    [
                        -89.3079,
                        31.342803
                    ],
                    [
                        -89.309033,
                        31.343476
                    ],
                    [
                        -89.310469,
                        31.344305
                    ],
                    [
                        -89.311893,
                        31.345128
                    ],
                    [
                        -89.312486,
                        31.345468
                    ],
                    [
                        -89.31301,
                        31.345734
                    ],
                    [
                        -89.313597,
                        31.345977
                    ],
                    [
                        -89.314256,
                        31.346209
                    ],
                    [
                        -89.315013,
                        31.346411
                    ],
                    [
                        -89.316005,
                        31.346589
                    ],
                    [
                        -89.316442,
                        31.346633
                    ],
                    [
                        -89.317345,
                        31.346676
                    ],
                    [
                        -89.319135,
                        31.346666
                    ],
                    [
                        -89.321521,
                        31.346687
                    ],
                    [
                        -89.323635,
                        31.346696
                    ],
                    [
                        -89.32538,
                        31.346707
                    ],
                    [
                        -89.327128,
                        31.346716
                    ],
                    [
                        -89.327702,
                        31.346722
                    ],
                    [
                        -89.329215,
                        31.346786
                    ],
                    [
                        -89.330051,
                        31.346858
                    ],
                    [
                        -89.330857,
                        31.346975
                    ],
                    [
                        -89.330885,
                        31.346983
                    ],
                    [
                        -89.330872,
                        31.347016
                    ],
                    [
                        -89.330854,
                        31.347084
                    ],
                    [
                        -89.330864,
                        31.347132
                    ],
                    [
                        -89.330905,
                        31.347154
                    ],
                    [
                        -89.331103,
                        31.347194
                    ],
                    [
                        -89.331701,
                        31.34731
                    ],
                    [
                        -89.332868,
                        31.347586
                    ],
                    [
                        -89.333517,
                        31.347786
                    ],
                    [
                        -89.334272,
                        31.348034
                    ],
                    [
                        -89.335171,
                        31.348378
                    ],
                    [
                        -89.335194,
                        31.348411
                    ],
                    [
                        -89.33522,
                        31.349858
                    ],
                    [
                        -89.335233,
                        31.350001
                    ],
                    [
                        -89.335387,
                        31.349994
                    ],
                    [
                        -89.335443,
                        31.349977
                    ],
                    [
                        -89.335436,
                        31.349315
                    ],
                    [
                        -89.335402,
                        31.34926
                    ],
                    [
                        -89.335336,
                        31.349225
                    ],
                    [
                        -89.335266,
                        31.349229
                    ],
                    [
                        -89.335246,
                        31.349212
                    ],
                    [
                        -89.335248,
                        31.349082
                    ],
                    [
                        -89.33523,
                        31.348276
                    ],
                    [
                        -89.335228,
                        31.348158
                    ],
                    [
                        -89.335256,
                        31.348062
                    ],
                    [
                        -89.335259,
                        31.347672
                    ],
                    [
                        -89.335269,
                        31.346904
                    ],
                    [
                        -89.335269,
                        31.346676
                    ],
                    [
                        -89.335982,
                        31.346678
                    ],
                    [
                        -89.337524,
                        31.346667
                    ],
                    [
                        -89.339739,
                        31.346654
                    ],
                    [
                        -89.342145,
                        31.346649
                    ],
                    [
                        -89.343982,
                        31.346658
                    ],
                    [
                        -89.345895,
                        31.34666
                    ],
                    [
                        -89.347638,
                        31.346695
                    ],
                    [
                        -89.349237,
                        31.346702
                    ],
                    [
                        -89.350635,
                        31.346693
                    ],
                    [
                        -89.350663,
                        31.346693
                    ],
                    [
                        -89.350668,
                        31.346632
                    ],
                    [
                        -89.350656,
                        31.346568
                    ],
                    [
                        -89.350622,
                        31.346511
                    ],
                    [
                        -89.350553,
                        31.346456
                    ],
                    [
                        -89.350432,
                        31.346428
                    ],
                    [
                        -89.34969,
                        31.346334
                    ],
                    [
                        -89.349383,
                        31.346255
                    ],
                    [
                        -89.349044,
                        31.346088
                    ],
                    [
                        -89.347922,
                        31.345339
                    ],
                    [
                        -89.347585,
                        31.345078
                    ],
                    [
                        -89.347103,
                        31.344485
                    ],
                    [
                        -89.346886,
                        31.344189
                    ],
                    [
                        -89.346743,
                        31.344044
                    ],
                    [
                        -89.346542,
                        31.343884
                    ],
                    [
                        -89.346343,
                        31.343737
                    ],
                    [
                        -89.34574,
                        31.343424
                    ],
                    [
                        -89.345653,
                        31.343371
                    ],
                    [
                        -89.345581,
                        31.34327
                    ],
                    [
                        -89.345447,
                        31.343013
                    ],
                    [
                        -89.345122,
                        31.342006
                    ],
                    [
                        -89.344734,
                        31.340904
                    ],
                    [
                        -89.34433,
                        31.34013
                    ],
                    [
                        -89.343929,
                        31.339537
                    ],
                    [
                        -89.343831,
                        31.339361
                    ],
                    [
                        -89.3438,
                        31.339251
                    ],
                    [
                        -89.343784,
                        31.339061
                    ],
                    [
                        -89.343787,
                        31.338492
                    ],
                    [
                        -89.343784,
                        31.338106
                    ],
                    [
                        -89.343866,
                        31.337563
                    ],
                    [
                        -89.343872,
                        31.336838
                    ],
                    [
                        -89.343877,
                        31.335934
                    ],
                    [
                        -89.343864,
                        31.335917
                    ],
                    [
                        -89.343856,
                        31.335873
                    ],
                    [
                        -89.343687,
                        31.335891
                    ],
                    [
                        -89.343425,
                        31.335891
                    ],
                    [
                        -89.342021,
                        31.335838
                    ],
                    [
                        -89.339921,
                        31.335799
                    ],
                    [
                        -89.338309,
                        31.335763
                    ],
                    [
                        -89.335494,
                        31.335717
                    ],
                    [
                        -89.335461,
                        31.335717
                    ],
                    [
                        -89.335463,
                        31.335636
                    ],
                    [
                        -89.335466,
                        31.334589
                    ],
                    [
                        -89.335458,
                        31.334039
                    ],
                    [
                        -89.335386,
                        31.33405
                    ],
                    [
                        -89.335286,
                        31.334057
                    ],
                    [
                        -89.335255,
                        31.334425
                    ],
                    [
                        -89.335258,
                        31.334469
                    ],
                    [
                        -89.335266,
                        31.334489
                    ],
                    [
                        -89.335396,
                        31.334504
                    ],
                    [
                        -89.335414,
                        31.334506
                    ],
                    [
                        -89.335407,
                        31.334598
                    ],
                    [
                        -89.33542,
                        31.335703
                    ],
                    [
                        -89.335114,
                        31.335712
                    ],
                    [
                        -89.333893,
                        31.335692
                    ],
                    [
                        -89.331758,
                        31.335675
                    ],
                    [
                        -89.33191,
                        31.335697
                    ],
                    [
                        -89.32884,
                        31.335666
                    ],
                    [
                        -89.32784,
                        31.335664
                    ],
                    [
                        -89.32606,
                        31.335677
                    ],
                    [
                        -89.323858,
                        31.335662
                    ],
                    [
                        -89.322446,
                        31.335677
                    ],
                    [
                        -89.32053,
                        31.335682
                    ],
                    [
                        -89.31935,
                        31.335677
                    ],
                    [
                        -89.317883,
                        31.335677
                    ],
                    [
                        -89.31532,
                        31.335688
                    ],
                    [
                        -89.313522,
                        31.335697
                    ],
                    [
                        -89.312478,
                        31.335721
                    ],
                    [
                        -89.312203,
                        31.335736
                    ],
                    [
                        -89.310233,
                        31.335732
                    ],
                    [
                        -89.307988,
                        31.335745
                    ],
                    [
                        -89.307988,
                        31.335745
                    ],
                    [
                        -89.305728,
                        31.335756
                    ],
                    [
                        -89.305207,
                        31.335756
                    ],
                    [
                        -89.305032,
                        31.33573
                    ],
                    [
                        -89.304796,
                        31.335692
                    ],
                    [
                        -89.304424,
                        31.335662
                    ],
                    [
                        -89.304052,
                        31.335657
                    ],
                    [
                        -89.302349,
                        31.33566
                    ],
                    [
                        -89.300748,
                        31.335664
                    ],
                    [
                        -89.299707,
                        31.335664
                    ],
                    [
                        -89.299164,
                        31.335666
                    ],
                    [
                        -89.299115,
                        31.335688
                    ],
                    [
                        -89.298767,
                        31.335154
                    ],
                    [
                        -89.297984,
                        31.333901
                    ],
                    [
                        -89.297478,
                        31.33315
                    ],
                    [
                        -89.296973,
                        31.33251
                    ],
                    [
                        -89.296543,
                        31.332069
                    ],
                    [
                        -89.295994,
                        31.331273
                    ],
                    [
                        -89.295096,
                        31.329997
                    ],
                    [
                        -89.294739,
                        31.32954
                    ],
                    [
                        -89.293874,
                        31.328721
                    ],
                    [
                        -89.29363,
                        31.328561
                    ],
                    [
                        -89.292603,
                        31.328176
                    ],
                    [
                        -89.291404,
                        31.327733
                    ],
                    [
                        -89.291135,
                        31.327622
                    ],
                    [
                        -89.290637,
                        31.327237
                    ],
                    [
                        -89.290178,
                        31.326855
                    ],
                    [
                        -89.289207,
                        31.326054
                    ],
                    [
                        -89.288643,
                        31.325554
                    ],
                    [
                        -89.288204,
                        31.325214
                    ],
                    [
                        -89.287008,
                        31.326275
                    ],
                    [
                        -89.286535,
                        31.326688
                    ],
                    [
                        -89.286286,
                        31.326826
                    ],
                    [
                        -89.286068,
                        31.326988
                    ],
                    [
                        -89.2858,
                        31.327285
                    ],
                    [
                        -89.285526,
                        31.32754
                    ],
                    [
                        -89.285344,
                        31.32771
                    ],
                    [
                        -89.285431,
                        31.327781
                    ],
                    [
                        -89.285518,
                        31.327845
                    ],
                    [
                        -89.285543,
                        31.327858
                    ],
                    [
                        -89.285609,
                        31.327803
                    ],
                    [
                        -89.28568,
                        31.327763
                    ]
                ]
            }
        }
    ]
}