{
    "type": "FeatureCollection",
    "features": [
        {
            "type": "Feature",
            "geometry": {
                "type": "Point",
                "coordinates": [
                    -89.329851,
                    31.33563
                ]
            },
            "properties": {
                "name": "W 7th St and Service Dr (Hillcrest Lot)",
                "stopNum": 1
            }
        },
        {
            "type": "Feature",
            "geometry": {
                "type": "Point",
                "coordinates": [
                    -89.32937,
                    31.333645
                ]
            },
            "properties": {
                "name": "Hillcrest Hall",
                "stopNum": 2
            }
        },
        {
            "type": "Feature",
            "geometry": {
                "type": "Point",
                "coordinates": [
                    -89.33829,
                    31.328377
                ]
            },
            "properties": {
                "name": "Montague Blvd @ DuBard School",
                "stopNum": 11
            }
        },
        {
            "type": "Feature",
            "geometry": {
                "type": "Point",
                "coordinates": [
                    -89.334859,
                    31.328331
                ]
            },
            "properties": {
                "name": "Golden Eagle Ave @ Montague Blvd",
                "stopNum": 12
            }
        },
        {
            "type": "Feature",
            "geometry": {
                "type": "Point",
                "coordinates": [
                    -89.334724,
                    31.329459
                ]
            },
            "properties": {
                "name": "Golden Eagle Ave @ Charles Lane Dr",
                "stopNum": 13
            }
        },
        {
            "type": "Feature",
            "geometry": {
                "type": "Point",
                "coordinates": [
                    -89.332945,
                    31.331907
                ]
            },
            "properties": {
                "name": "4th Street @ Moffet Health Center",
                "stopNum": 14
            }
        },
        {
            "type": "Feature",
            "geometry": {
                "type": "Point",
                "coordinates": [
                    -89.33054,
                    31.33043
                ]
            },
            "properties": {
                "name": "Stadium Ave @ Athletic Center",
                "stopNum": 3
            }
        },
        {
            "type": "Feature",
            "geometry": {
                "type": "Point",
                "coordinates": [
                    -89.330628,
                    31.327978
                ]
            },
            "properties": {
                "name": "Eagle Walk and College Dr",
                "stopNum": 4
            }
        },
        {
            "type": "Feature",
            "geometry": {
                "type": "Point",
                "coordinates": [
                    -89.333008,
                    31.325883
                ]
            },
            "properties": {
                "name": "Southern Miss Dr and W Memorial Dr",
                "stopNum": 5
            }
        },
        {
            "type": "Feature",
            "geometry": {
                "type": "Point",
                "coordinates": [
                    -89.332954,
                    31.324955
                ]
            },
            "properties": {
                "name": "W Memorial Dr @ Hardy St",
                "stopNum": 6
            }
        },
        {
            "type": "Feature",
            "geometry": {
                "type": "Point",
                "coordinates": [
                    -89.335847,
                    31.324901
                ]
            },
            "properties": {
                "name": "Hardy St and 31st Ave (JR Gas Station)",
                "stopNum": 7
            }
        },
        {
            "type": "Feature",
            "geometry": {
                "type": "Point",
                "coordinates": [
                    -89.335937,
                    31.326651
                ]
            },
            "properties": {
                "name": "North 31st @ Pearl St",
                "stopNum": 8
            }
        },
        {
            "type": "Feature",
            "geometry": {
                "type": "Point",
                "coordinates": [
                    -89.340761,
                    31.326827
                ]
            },
            "properties": {
                "name": "Pearl St @ N 34th Ave",
                "stopNum": 9
            }
        },
        {
            "type": "Feature",
            "geometry": {
                "type": "Point",
                "coordinates": [
                    -89.341965,
                    31.328416
                ]
            },
            "properties": {
                "name": "N 35th Ave @ Montague Blvd",
                "stopNum": 10
            }
        },
        {
            "type": "Feature",
            "properties": {},
            "geometry": {
                "type": "LineString",
                "coordinates": [
                    [
                        -89.329589,
                        31.335685
                    ],
                    [
                        -89.329361,
                        31.335685
                    ],
                    [
                        -89.329334,
                        31.33568
                    ],
                    [
                        -89.329341,
                        31.335521
                    ],
                    [
                        -89.329333,
                        31.335248
                    ],
                    [
                        -89.32932,
                        31.334836
                    ],
                    [
                        -89.329302,
                        31.334345
                    ],
                    [
                        -89.329333,
                        31.333649
                    ],
                    [
                        -89.329356,
                        31.333088
                    ],
                    [
                        -89.329335,
                        31.332502
                    ],
                    [
                        -89.329308,
                        31.331977
                    ],
                    [
                        -89.330081,
                        31.331988
                    ],
                    [
                        -89.330437,
                        31.331992
                    ],
                    [
                        -89.330462,
                        31.331994
                    ],
                    [
                        -89.330474,
                        31.331625
                    ],
                    [
                        -89.330489,
                        31.330837
                    ],
                    [
                        -89.330515,
                        31.330375
                    ],
                    [
                        -89.33053,
                        31.327977
                    ],
                    [
                        -89.330534,
                        31.326869
                    ],
                    [
                        -89.330479,
                        31.326408
                    ],
                    [
                        -89.330432,
                        31.326069
                    ],
                    [
                        -89.330417,
                        31.325894
                    ],
                    [
                        -89.330423,
                        31.325851
                    ],
                    [
                        -89.33046,
                        31.325775
                    ],
                    [
                        -89.330535,
                        31.325689
                    ],
                    [
                        -89.33062,
                        31.325643
                    ],
                    [
                        -89.330663,
                        31.325643
                    ],
                    [
                        -89.331286,
                        31.325796
                    ],
                    [
                        -89.331361,
                        31.325809
                    ],
                    [
                        -89.331483,
                        31.325824
                    ],
                    [
                        -89.33161,
                        31.325827
                    ],
                    [
                        -89.333004,
                        31.325809
                    ],
                    [
                        -89.333055,
                        31.325809
                    ],
                    [
                        -89.333066,
                        31.325804
                    ],
                    [
                        -89.333079,
                        31.325696
                    ],
                    [
                        -89.333006,
                        31.325553
                    ],
                    [
                        -89.332926,
                        31.325452
                    ],
                    [
                        -89.332868,
                        31.325372
                    ],
                    [
                        -89.332845,
                        31.325317
                    ],
                    [
                        -89.332843,
                        31.325293
                    ],
                    [
                        -89.332839,
                        31.325184
                    ],
                    [
                        -89.332838,
                        31.325077
                    ],
                    [
                        -89.332843,
                        31.324839
                    ],
                    [
                        -89.33284,
                        31.324808
                    ],
                    [
                        -89.334369,
                        31.324844
                    ],
                    [
                        -89.33588,
                        31.324836
                    ],
                    [
                        -89.335968,
                        31.324839
                    ],
                    [
                        -89.335992,
                        31.324846
                    ],
                    [
                        -89.335992,
                        31.325335
                    ],
                    [
                        -89.335998,
                        31.325863
                    ],
                    [
                        -89.336011,
                        31.32665
                    ],
                    [
                        -89.336011,
                        31.326669
                    ],
                    [
                        -89.336568,
                        31.326678
                    ],
                    [
                        -89.337687,
                        31.326696
                    ],
                    [
                        -89.339831,
                        31.326748
                    ],
                    [
                        -89.340829,
                        31.32676
                    ],
                    [
                        -89.341995,
                        31.32677
                    ],
                    [
                        -89.34201,
                        31.326772
                    ],
                    [
                        -89.342012,
                        31.32719
                    ],
                    [
                        -89.342004,
                        31.328448
                    ],
                    [
                        -89.342006,
                        31.328468
                    ],
                    [
                        -89.341524,
                        31.32846
                    ],
                    [
                        -89.338299,
                        31.328429
                    ],
                    [
                        -89.334887,
                        31.328398
                    ],
                    [
                        -89.334767,
                        31.328399
                    ],
                    [
                        -89.334755,
                        31.328399
                    ],
                    [
                        -89.334755,
                        31.328824
                    ],
                    [
                        -89.334733,
                        31.329458
                    ],
                    [
                        -89.334719,
                        31.330245
                    ],
                    [
                        -89.33471,
                        31.330928
                    ],
                    [
                        -89.334711,
                        31.331257
                    ],
                    [
                        -89.334723,
                        31.331395
                    ],
                    [
                        -89.33472,
                        31.331573
                    ],
                    [
                        -89.334727,
                        31.33198
                    ],
                    [
                        -89.334727,
                        31.331992
                    ],
                    [
                        -89.333893,
                        31.331991
                    ],
                    [
                        -89.333077,
                        31.331991
                    ],
                    [
                        -89.332946,
                        31.331991
                    ],
                    [
                        -89.330609,
                        31.331986
                    ],
                    [
                        -89.330231,
                        31.331973
                    ],
                    [
                        -89.329708,
                        31.331968
                    ],
                    [
                        -89.329353,
                        31.331968
                    ],
                    [
                        -89.3293,
                        31.331966
                    ],
                    [
                        -89.329293,
                        31.331967
                    ],
                    [
                        -89.329297,
                        31.332102
                    ],
                    [
                        -89.329309,
                        31.332168
                    ],
                    [
                        -89.329315,
                        31.332396
                    ],
                    [
                        -89.329324,
                        31.332668
                    ],
                    [
                        -89.329338,
                        31.332915
                    ],
                    [
                        -89.329341,
                        31.333085
                    ],
                    [
                        -89.329329,
                        31.33331
                    ],
                    [
                        -89.329309,
                        31.333701
                    ],
                    [
                        -89.32929,
                        31.334141
                    ],
                    [
                        -89.329289,
                        31.334472
                    ],
                    [
                        -89.329288,
                        31.334525
                    ],
                    [
                        -89.329471,
                        31.334523
                    ],
                    [
                        -89.329483,
                        31.334526
                    ],
                    [
                        -89.329484,
                        31.334781
                    ],
                    [
                        -89.329506,
                        31.335243
                    ],
                    [
                        -89.329515,
                        31.33542
                    ],
                    [
                        -89.329541,
                        31.335472
                    ],
                    [
                        -89.329647,
                        31.335536
                    ],
                    [
                        -89.330003,
                        31.335537
                    ],
                    [
                        -89.330015,
                        31.335539
                    ],
                    [
                        -89.330002,
                        31.335665
                    ],
                    [
                        -89.330002,
                        31.335679
                    ],
                    [
                        -89.329588,
                        31.335684
                    ]
                ]
            }
        }
    ]
}