{
    "type": "FeatureCollection",
    "features": [
        {
            "type": "Feature",
            "geometry": {
                "type": "Point",
                "coordinates": [
                    -89.319411,
                    31.308037
                ]
            },
            "properties": {
                "name": "Walmart @ 49",
                "stopNum": 1
            }
        },
        {
            "type": "Feature",
            "geometry": {
                "type": "Point",
                "coordinates": [
                    -89.320719,
                    31.309506
                ]
            },
            "properties": {
                "name": "Washington St and Live Well Center",
                "stopNum": 2
            }
        },
        {
            "type": "Feature",
            "geometry": {
                "type": "Point",
                "coordinates": [
                    -89.348019,
                    31.328446
                ]
            },
            "properties": {
                "name": "Montague Blvd and 40th Ave",
                "stopNum": 11
            }
        },
        {
            "type": "Feature",
            "geometry": {
                "type": "Point",
                "coordinates": [
                    -89.34563,
                    31.326927
                ]
            },
            "properties": {
                "name": "Pearl St and 38th Ave",
                "stopNum": 12
            }
        },
        {
            "type": "Feature",
            "geometry": {
                "type": "Point",
                "coordinates": [
                    -89.344507,
                    31.324832
                ]
            },
            "properties": {
                "name": "Hardy St at Midtown Market Shopping Center",
                "stopNum": 13
            }
        },
        {
            "type": "Feature",
            "geometry": {
                "type": "Point",
                "coordinates": [
                    -89.340518,
                    31.32474
                ]
            },
            "properties": {
                "name": "Hardy St and 34th Ave",
                "stopNum": 14
            }
        },
        {
            "type": "Feature",
            "geometry": {
                "type": "Point",
                "coordinates": [
                    -89.334437,
                    31.324663
                ]
            },
            "properties": {
                "name": "Hardy St and 30th Ave",
                "stopNum": 15
            }
        },
        {
            "type": "Feature",
            "geometry": {
                "type": "Point",
                "coordinates": [
                    -89.332622,
                    31.323811
                ]
            },
            "properties": {
                "name": "Hardy St and 29th Ave",
                "stopNum": 16
            }
        },
        {
            "type": "Feature",
            "geometry": {
                "type": "Point",
                "coordinates": [
                    -89.330978,
                    31.321003
                ]
            },
            "properties": {
                "name": "Midtown stop 28th st",
                "stopNum": 17
            }
        },
        {
            "type": "Feature",
            "geometry": {
                "type": "Point",
                "coordinates": [
                    -89.329692,
                    31.319274
                ]
            },
            "properties": {
                "name": "Mamie St at Forrest General Hospital",
                "stopNum": 18
            }
        },
        {
            "type": "Feature",
            "geometry": {
                "type": "Point",
                "coordinates": [
                    -89.328696,
                    31.327441
                ]
            },
            "properties": {
                "name": "N 26th Ave and Quinn St",
                "stopNum": 3
            }
        },
        {
            "type": "Feature",
            "geometry": {
                "type": "Point",
                "coordinates": [
                    -89.329577,
                    31.335598
                ]
            },
            "properties": {
                "name": "W 7th St and Service Dr (Hillcrest Lot)",
                "stopNum": 4
            }
        },
        {
            "type": "Feature",
            "geometry": {
                "type": "Point",
                "coordinates": [
                    -89.32937,
                    31.333645
                ]
            },
            "properties": {
                "name": "Hillcrest Hall",
                "stopNum": 5
            }
        },
        {
            "type": "Feature",
            "geometry": {
                "type": "Point",
                "coordinates": [
                    -89.330511,
                    31.332083
                ]
            },
            "properties": {
                "name": "4th St and Eagle Walk",
                "stopNum": 6
            }
        },
        {
            "type": "Feature",
            "geometry": {
                "type": "Point",
                "coordinates": [
                    -89.337716,
                    31.332306
                ]
            },
            "properties": {
                "name": "W 4th St and USM Coliseum",
                "stopNum": 7
            }
        },
        {
            "type": "Feature",
            "geometry": {
                "type": "Point",
                "coordinates": [
                    -89.34385,
                    31.33483
                ]
            },
            "properties": {
                "name": "W 4th St and Virginia Dr",
                "stopNum": 8
            }
        },
        {
            "type": "Feature",
            "geometry": {
                "type": "Point",
                "coordinates": [
                    -89.34925,
                    31.334777
                ]
            },
            "properties": {
                "name": "ThornHill Dr @ Mark IV",
                "stopNum": 9
            }
        },
        {
            "type": "Feature",
            "geometry": {
                "type": "Point",
                "coordinates": [
                    -89.350777,
                    31.330487
                ]
            },
            "properties": {
                "name": "Grand Theatre",
                "stopNum": 10
            }
        },
        {
            "type": "Feature",
            "properties": {},
            "geometry": {
                "type": "LineString",
                "coordinates": [
                    [
                        -89.319403,
                        31.308035
                    ],
                    [
                        -89.319403,
                        31.307733
                    ],
                    [
                        -89.319388,
                        31.307662
                    ],
                    [
                        -89.31935,
                        31.30763
                    ],
                    [
                        -89.319324,
                        31.307615
                    ],
                    [
                        -89.319325,
                        31.307616
                    ],
                    [
                        -89.318971,
                        31.307627
                    ],
                    [
                        -89.318971,
                        31.307628
                    ],
                    [
                        -89.318841,
                        31.307619
                    ],
                    [
                        -89.318842,
                        31.30762
                    ],
                    [
                        -89.318704,
                        31.307622
                    ],
                    [
                        -89.318705,
                        31.307622
                    ],
                    [
                        -89.318613,
                        31.30765
                    ],
                    [
                        -89.318614,
                        31.307651
                    ],
                    [
                        -89.318575,
                        31.307712
                    ],
                    [
                        -89.318576,
                        31.307712
                    ],
                    [
                        -89.318597,
                        31.308151
                    ],
                    [
                        -89.318598,
                        31.308151
                    ],
                    [
                        -89.318597,
                        31.30828
                    ],
                    [
                        -89.318598,
                        31.308281
                    ],
                    [
                        -89.318615,
                        31.308399
                    ],
                    [
                        -89.318615,
                        31.3084
                    ],
                    [
                        -89.318624,
                        31.308478
                    ],
                    [
                        -89.318625,
                        31.308478
                    ],
                    [
                        -89.318634,
                        31.308577
                    ],
                    [
                        -89.318635,
                        31.308578
                    ],
                    [
                        -89.318691,
                        31.308733
                    ],
                    [
                        -89.318692,
                        31.308734
                    ],
                    [
                        -89.318779,
                        31.308949
                    ],
                    [
                        -89.31878,
                        31.308949
                    ],
                    [
                        -89.318859,
                        31.309071
                    ],
                    [
                        -89.318859,
                        31.309073
                    ],
                    [
                        -89.318926,
                        31.309151
                    ],
                    [
                        -89.318926,
                        31.309152
                    ],
                    [
                        -89.318977,
                        31.309212
                    ],
                    [
                        -89.318977,
                        31.309212
                    ],
                    [
                        -89.319074,
                        31.309276
                    ],
                    [
                        -89.31907,
                        31.309274
                    ],
                    [
                        -89.319179,
                        31.309345
                    ],
                    [
                        -89.319177,
                        31.309344
                    ],
                    [
                        -89.319275,
                        31.309374
                    ],
                    [
                        -89.319275,
                        31.309375
                    ],
                    [
                        -89.319364,
                        31.309406
                    ],
                    [
                        -89.319365,
                        31.309408
                    ],
                    [
                        -89.319674,
                        31.309452
                    ],
                    [
                        -89.319674,
                        31.309453
                    ],
                    [
                        -89.320112,
                        31.309452
                    ],
                    [
                        -89.320113,
                        31.309453
                    ],
                    [
                        -89.320372,
                        31.309457
                    ],
                    [
                        -89.320372,
                        31.309458
                    ],
                    [
                        -89.320571,
                        31.309454
                    ],
                    [
                        -89.320572,
                        31.309455
                    ],
                    [
                        -89.32071,
                        31.309452
                    ],
                    [
                        -89.32071,
                        31.309453
                    ],
                    [
                        -89.321436,
                        31.309461
                    ],
                    [
                        -89.321436,
                        31.309461
                    ],
                    [
                        -89.321513,
                        31.309501
                    ],
                    [
                        -89.321514,
                        31.309502
                    ],
                    [
                        -89.32158,
                        31.309554
                    ],
                    [
                        -89.321581,
                        31.309554
                    ],
                    [
                        -89.321624,
                        31.309645
                    ],
                    [
                        -89.321625,
                        31.309646
                    ],
                    [
                        -89.321639,
                        31.309707
                    ],
                    [
                        -89.32164,
                        31.309708
                    ],
                    [
                        -89.321641,
                        31.31032
                    ],
                    [
                        -89.321642,
                        31.31032
                    ],
                    [
                        -89.321624,
                        31.310528
                    ],
                    [
                        -89.321624,
                        31.310529
                    ],
                    [
                        -89.321585,
                        31.310659
                    ],
                    [
                        -89.321585,
                        31.31066
                    ],
                    [
                        -89.321499,
                        31.310762
                    ],
                    [
                        -89.321499,
                        31.310763
                    ],
                    [
                        -89.321437,
                        31.310821
                    ],
                    [
                        -89.321438,
                        31.310822
                    ],
                    [
                        -89.32133,
                        31.310897
                    ],
                    [
                        -89.321331,
                        31.310898
                    ],
                    [
                        -89.321149,
                        31.31099
                    ],
                    [
                        -89.32115,
                        31.31099
                    ],
                    [
                        -89.320966,
                        31.311089
                    ],
                    [
                        -89.320967,
                        31.311089
                    ],
                    [
                        -89.320857,
                        31.311188
                    ],
                    [
                        -89.320857,
                        31.311189
                    ],
                    [
                        -89.320734,
                        31.311261
                    ],
                    [
                        -89.320734,
                        31.311261
                    ],
                    [
                        -89.320687,
                        31.311338
                    ],
                    [
                        -89.320688,
                        31.311339
                    ],
                    [
                        -89.32073,
                        31.311421
                    ],
                    [
                        -89.320731,
                        31.311421
                    ],
                    [
                        -89.320819,
                        31.311511
                    ],
                    [
                        -89.32082,
                        31.311512
                    ],
                    [
                        -89.320991,
                        31.311679
                    ],
                    [
                        -89.322748,
                        31.313364
                    ],
                    [
                        -89.324436,
                        31.314978
                    ],
                    [
                        -89.326024,
                        31.316525
                    ],
                    [
                        -89.327067,
                        31.317563
                    ],
                    [
                        -89.327454,
                        31.318039
                    ],
                    [
                        -89.327673,
                        31.318347
                    ],
                    [
                        -89.328164,
                        31.319144
                    ],
                    [
                        -89.328413,
                        31.319699
                    ],
                    [
                        -89.328593,
                        31.320231
                    ],
                    [
                        -89.32883,
                        31.321146
                    ],
                    [
                        -89.32886,
                        31.321413
                    ],
                    [
                        -89.328927,
                        31.32264
                    ],
                    [
                        -89.328919,
                        31.323737
                    ],
                    [
                        -89.328933,
                        31.324555
                    ],
                    [
                        -89.328917,
                        31.326498
                    ],
                    [
                        -89.32885,
                        31.326572
                    ],
                    [
                        -89.328787,
                        31.326603
                    ],
                    [
                        -89.328747,
                        31.327352
                    ],
                    [
                        -89.328737,
                        31.328368
                    ],
                    [
                        -89.328737,
                        31.328388
                    ],
                    [
                        -89.327829,
                        31.328375
                    ],
                    [
                        -89.327767,
                        31.328381
                    ],
                    [
                        -89.327743,
                        31.33197
                    ],
                    [
                        -89.327758,
                        31.332
                    ],
                    [
                        -89.329258,
                        31.33198
                    ],
                    [
                        -89.329258,
                        31.332498
                    ],
                    [
                        -89.329312,
                        31.332753
                    ],
                    [
                        -89.32932,
                        31.333311
                    ],
                    [
                        -89.329262,
                        31.334333
                    ],
                    [
                        -89.329266,
                        31.334455
                    ],
                    [
                        -89.329468,
                        31.334543
                    ],
                    [
                        -89.329477,
                        31.334917
                    ],
                    [
                        -89.329515,
                        31.335435
                    ],
                    [
                        -89.329581,
                        31.335524
                    ],
                    [
                        -89.330005,
                        31.335562
                    ],
                    [
                        -89.330038,
                        31.335648
                    ],
                    [
                        -89.329772,
                        31.335669
                    ],
                    [
                        -89.329567,
                        31.335667
                    ],
                    [
                        -89.329436,
                        31.335664
                    ],
                    [
                        -89.329365,
                        31.335515
                    ],
                    [
                        -89.329348,
                        31.335134
                    ],
                    [
                        -89.329355,
                        31.334576
                    ],
                    [
                        -89.329315,
                        31.334036
                    ],
                    [
                        -89.329315,
                        31.334037
                    ],
                    [
                        -89.329335,
                        31.333819
                    ],
                    [
                        -89.329351,
                        31.33364
                    ],
                    [
                        -89.32937,
                        31.333066
                    ],
                    [
                        -89.329351,
                        31.332165
                    ],
                    [
                        -89.32934,
                        31.332024
                    ],
                    [
                        -89.330508,
                        31.332034
                    ],
                    [
                        -89.332858,
                        31.33202
                    ],
                    [
                        -89.335086,
                        31.332076
                    ],
                    [
                        -89.336934,
                        31.3322
                    ],
                    [
                        -89.338607,
                        31.332331
                    ],
                    [
                        -89.340335,
                        31.33245
                    ],
                    [
                        -89.340677,
                        31.332527
                    ],
                    [
                        -89.340745,
                        31.332541
                    ],
                    [
                        -89.34097,
                        31.332618
                    ],
                    [
                        -89.341473,
                        31.332821
                    ],
                    [
                        -89.341604,
                        31.332876
                    ],
                    [
                        -89.341769,
                        31.332968
                    ],
                    [
                        -89.342032,
                        31.333115
                    ],
                    [
                        -89.342499,
                        31.333424
                    ],
                    [
                        -89.343071,
                        31.33387
                    ],
                    [
                        -89.343738,
                        31.334409
                    ],
                    [
                        -89.344753,
                        31.335164
                    ],
                    [
                        -89.345432,
                        31.33547
                    ],
                    [
                        -89.346211,
                        31.335778
                    ],
                    [
                        -89.346285,
                        31.335815
                    ],
                    [
                        -89.346286,
                        31.335802
                    ],
                    [
                        -89.346284,
                        31.335801
                    ],
                    [
                        -89.346409,
                        31.335837
                    ],
                    [
                        -89.346404,
                        31.335836
                    ],
                    [
                        -89.346582,
                        31.335871
                    ],
                    [
                        -89.346578,
                        31.335872
                    ],
                    [
                        -89.346869,
                        31.33589
                    ],
                    [
                        -89.34687,
                        31.33589
                    ],
                    [
                        -89.347313,
                        31.335893
                    ],
                    [
                        -89.347313,
                        31.335894
                    ],
                    [
                        -89.347656,
                        31.335911
                    ],
                    [
                        -89.347657,
                        31.335912
                    ],
                    [
                        -89.348048,
                        31.335904
                    ],
                    [
                        -89.348049,
                        31.335905
                    ],
                    [
                        -89.348335,
                        31.335913
                    ],
                    [
                        -89.348335,
                        31.335914
                    ],
                    [
                        -89.348535,
                        31.335882
                    ],
                    [
                        -89.348536,
                        31.335883
                    ],
                    [
                        -89.348905,
                        31.335884
                    ],
                    [
                        -89.348905,
                        31.335885
                    ],
                    [
                        -89.349008,
                        31.335878
                    ],
                    [
                        -89.349009,
                        31.335879
                    ],
                    [
                        -89.349036,
                        31.335867
                    ],
                    [
                        -89.349037,
                        31.335868
                    ],
                    [
                        -89.349131,
                        31.335837
                    ],
                    [
                        -89.349132,
                        31.335837
                    ],
                    [
                        -89.349152,
                        31.335781
                    ],
                    [
                        -89.349153,
                        31.335782
                    ],
                    [
                        -89.349136,
                        31.335643
                    ],
                    [
                        -89.349137,
                        31.335644
                    ],
                    [
                        -89.349131,
                        31.335026
                    ],
                    [
                        -89.349132,
                        31.335027
                    ],
                    [
                        -89.349156,
                        31.334855
                    ],
                    [
                        -89.349156,
                        31.334856
                    ],
                    [
                        -89.349232,
                        31.334689
                    ],
                    [
                        -89.349232,
                        31.33469
                    ],
                    [
                        -89.349507,
                        31.334379
                    ],
                    [
                        -89.349508,
                        31.33438
                    ],
                    [
                        -89.349555,
                        31.334289
                    ],
                    [
                        -89.349556,
                        31.33429
                    ],
                    [
                        -89.349631,
                        31.334191
                    ],
                    [
                        -89.349632,
                        31.334191
                    ],
                    [
                        -89.34974,
                        31.333908
                    ],
                    [
                        -89.349741,
                        31.333909
                    ],
                    [
                        -89.349757,
                        31.333744
                    ],
                    [
                        -89.349757,
                        31.333744
                    ],
                    [
                        -89.349747,
                        31.333211
                    ],
                    [
                        -89.349748,
                        31.333211
                    ],
                    [
                        -89.349759,
                        31.332392
                    ],
                    [
                        -89.34976,
                        31.332393
                    ],
                    [
                        -89.34979,
                        31.332278
                    ],
                    [
                        -89.349791,
                        31.332279
                    ],
                    [
                        -89.349826,
                        31.332231
                    ],
                    [
                        -89.349827,
                        31.332231
                    ],
                    [
                        -89.349881,
                        31.332178
                    ],
                    [
                        -89.349881,
                        31.332179
                    ],
                    [
                        -89.350014,
                        31.332117
                    ],
                    [
                        -89.350014,
                        31.332118
                    ],
                    [
                        -89.350792,
                        31.332084
                    ],
                    [
                        -89.350792,
                        31.332085
                    ],
                    [
                        -89.351246,
                        31.332077
                    ],
                    [
                        -89.351246,
                        31.332078
                    ],
                    [
                        -89.351402,
                        31.332068
                    ],
                    [
                        -89.351402,
                        31.332069
                    ],
                    [
                        -89.35151,
                        31.332048
                    ],
                    [
                        -89.35151,
                        31.332048
                    ],
                    [
                        -89.351622,
                        31.33198
                    ],
                    [
                        -89.351624,
                        31.331981
                    ],
                    [
                        -89.351691,
                        31.331867
                    ],
                    [
                        -89.351692,
                        31.331868
                    ],
                    [
                        -89.351701,
                        31.33126
                    ],
                    [
                        -89.351702,
                        31.331261
                    ],
                    [
                        -89.351697,
                        31.33052
                    ],
                    [
                        -89.351698,
                        31.330521
                    ],
                    [
                        -89.351697,
                        31.330477
                    ],
                    [
                        -89.351698,
                        31.330478
                    ],
                    [
                        -89.351611,
                        31.330453
                    ],
                    [
                        -89.351611,
                        31.330453
                    ],
                    [
                        -89.351581,
                        31.330461
                    ],
                    [
                        -89.351581,
                        31.330462
                    ],
                    [
                        -89.35153,
                        31.330461
                    ],
                    [
                        -89.35153,
                        31.330462
                    ],
                    [
                        -89.351491,
                        31.330462
                    ],
                    [
                        -89.351491,
                        31.330463
                    ],
                    [
                        -89.351379,
                        31.330467
                    ],
                    [
                        -89.35138,
                        31.330468
                    ],
                    [
                        -89.351287,
                        31.330475
                    ],
                    [
                        -89.351288,
                        31.330475
                    ],
                    [
                        -89.351044,
                        31.330473
                    ],
                    [
                        -89.351045,
                        31.330474
                    ],
                    [
                        -89.350852,
                        31.330471
                    ],
                    [
                        -89.350852,
                        31.330471
                    ],
                    [
                        -89.350736,
                        31.330469
                    ],
                    [
                        -89.350736,
                        31.33047
                    ],
                    [
                        -89.350672,
                        31.330461
                    ],
                    [
                        -89.350672,
                        31.330462
                    ],
                    [
                        -89.350554,
                        31.330431
                    ],
                    [
                        -89.350555,
                        31.330432
                    ],
                    [
                        -89.350497,
                        31.330315
                    ],
                    [
                        -89.350497,
                        31.330316
                    ],
                    [
                        -89.35051,
                        31.330238
                    ],
                    [
                        -89.350512,
                        31.330238
                    ],
                    [
                        -89.350509,
                        31.330069
                    ],
                    [
                        -89.35051,
                        31.330071
                    ],
                    [
                        -89.35051,
                        31.329949
                    ],
                    [
                        -89.350512,
                        31.32995
                    ],
                    [
                        -89.350465,
                        31.329754
                    ],
                    [
                        -89.350466,
                        31.329754
                    ],
                    [
                        -89.350287,
                        31.329571
                    ],
                    [
                        -89.350288,
                        31.329571
                    ],
                    [
                        -89.350164,
                        31.329436
                    ],
                    [
                        -89.350165,
                        31.329437
                    ],
                    [
                        -89.350008,
                        31.329325
                    ],
                    [
                        -89.350009,
                        31.329325
                    ],
                    [
                        -89.349882,
                        31.329303
                    ],
                    [
                        -89.349883,
                        31.329303
                    ],
                    [
                        -89.349699,
                        31.329287
                    ],
                    [
                        -89.349699,
                        31.329287
                    ],
                    [
                        -89.349538,
                        31.329293
                    ],
                    [
                        -89.349539,
                        31.329294
                    ],
                    [
                        -89.349377,
                        31.329296
                    ],
                    [
                        -89.349378,
                        31.329297
                    ],
                    [
                        -89.349066,
                        31.329301
                    ],
                    [
                        -89.349066,
                        31.329302
                    ],
                    [
                        -89.348618,
                        31.329284
                    ],
                    [
                        -89.348618,
                        31.329286
                    ],
                    [
                        -89.348564,
                        31.32925
                    ],
                    [
                        -89.348565,
                        31.329251
                    ],
                    [
                        -89.348559,
                        31.328645
                    ],
                    [
                        -89.34856,
                        31.328646
                    ],
                    [
                        -89.34853,
                        31.328545
                    ],
                    [
                        -89.348531,
                        31.328545
                    ],
                    [
                        -89.348491,
                        31.328494
                    ],
                    [
                        -89.348492,
                        31.328495
                    ],
                    [
                        -89.34843,
                        31.328481
                    ],
                    [
                        -89.34843,
                        31.328482
                    ],
                    [
                        -89.348399,
                        31.328472
                    ],
                    [
                        -89.3484,
                        31.328474
                    ],
                    [
                        -89.348315,
                        31.32848
                    ],
                    [
                        -89.348316,
                        31.32848
                    ],
                    [
                        -89.348242,
                        31.328484
                    ],
                    [
                        -89.348243,
                        31.328484
                    ],
                    [
                        -89.348017,
                        31.328484
                    ],
                    [
                        -89.348018,
                        31.328484
                    ],
                    [
                        -89.347961,
                        31.32847
                    ],
                    [
                        -89.347961,
                        31.328471
                    ],
                    [
                        -89.3479,
                        31.328468
                    ],
                    [
                        -89.3479,
                        31.328468
                    ],
                    [
                        -89.347772,
                        31.328508
                    ],
                    [
                        -89.347772,
                        31.328509
                    ],
                    [
                        -89.347682,
                        31.328519
                    ],
                    [
                        -89.347686,
                        31.328518
                    ],
                    [
                        -89.34725,
                        31.32853
                    ],
                    [
                        -89.34725,
                        31.32853
                    ],
                    [
                        -89.346631,
                        31.328522
                    ],
                    [
                        -89.346632,
                        31.328522
                    ],
                    [
                        -89.345667,
                        31.328501
                    ],
                    [
                        -89.345667,
                        31.328502
                    ],
                    [
                        -89.345627,
                        31.328508
                    ],
                    [
                        -89.345627,
                        31.328509
                    ],
                    [
                        -89.345604,
                        31.328477
                    ],
                    [
                        -89.345605,
                        31.328477
                    ],
                    [
                        -89.345599,
                        31.328425
                    ],
                    [
                        -89.345599,
                        31.328426
                    ],
                    [
                        -89.345578,
                        31.328249
                    ],
                    [
                        -89.34558,
                        31.32825
                    ],
                    [
                        -89.34557,
                        31.327332
                    ],
                    [
                        -89.34557,
                        31.327332
                    ],
                    [
                        -89.345585,
                        31.326912
                    ],
                    [
                        -89.345586,
                        31.326912
                    ],
                    [
                        -89.345571,
                        31.326112
                    ],
                    [
                        -89.345572,
                        31.326113
                    ],
                    [
                        -89.345557,
                        31.326091
                    ],
                    [
                        -89.345558,
                        31.326092
                    ],
                    [
                        -89.345539,
                        31.326
                    ],
                    [
                        -89.34554,
                        31.326001
                    ],
                    [
                        -89.345538,
                        31.325707
                    ],
                    [
                        -89.345539,
                        31.325708
                    ],
                    [
                        -89.345539,
                        31.325488
                    ],
                    [
                        -89.34554,
                        31.325488
                    ],
                    [
                        -89.345547,
                        31.325095
                    ],
                    [
                        -89.345548,
                        31.325096
                    ],
                    [
                        -89.345527,
                        31.324884
                    ],
                    [
                        -89.345527,
                        31.324885
                    ],
                    [
                        -89.345439,
                        31.324846
                    ],
                    [
                        -89.34544,
                        31.324847
                    ],
                    [
                        -89.345374,
                        31.324857
                    ],
                    [
                        -89.345375,
                        31.324858
                    ],
                    [
                        -89.345315,
                        31.324859
                    ],
                    [
                        -89.345315,
                        31.324859
                    ],
                    [
                        -89.344507,
                        31.324833
                    ],
                    [
                        -89.344508,
                        31.324834
                    ],
                    [
                        -89.343117,
                        31.324826
                    ],
                    [
                        -89.343117,
                        31.324827
                    ],
                    [
                        -89.341768,
                        31.324813
                    ],
                    [
                        -89.341769,
                        31.324813
                    ],
                    [
                        -89.340263,
                        31.324784
                    ],
                    [
                        -89.340264,
                        31.324785
                    ],
                    [
                        -89.338499,
                        31.324755
                    ],
                    [
                        -89.338499,
                        31.324756
                    ],
                    [
                        -89.337275,
                        31.324746
                    ],
                    [
                        -89.337275,
                        31.324747
                    ],
                    [
                        -89.33616,
                        31.32471
                    ],
                    [
                        -89.33616,
                        31.32471
                    ],
                    [
                        -89.334419,
                        31.324707
                    ],
                    [
                        -89.33442,
                        31.324708
                    ],
                    [
                        -89.332958,
                        31.32467
                    ],
                    [
                        -89.33296,
                        31.32467
                    ],
                    [
                        -89.332893,
                        31.32465
                    ],
                    [
                        -89.332893,
                        31.324651
                    ],
                    [
                        -89.332817,
                        31.324582
                    ],
                    [
                        -89.332817,
                        31.324583
                    ],
                    [
                        -89.332765,
                        31.324484
                    ],
                    [
                        -89.332765,
                        31.324486
                    ],
                    [
                        -89.33273,
                        31.324379
                    ],
                    [
                        -89.332731,
                        31.32438
                    ],
                    [
                        -89.332609,
                        31.324279
                    ],
                    [
                        -89.332609,
                        31.32428
                    ],
                    [
                        -89.332579,
                        31.324214
                    ],
                    [
                        -89.332581,
                        31.324215
                    ],
                    [
                        -89.332546,
                        31.324089
                    ],
                    [
                        -89.332547,
                        31.32409
                    ],
                    [
                        -89.33255,
                        31.323942
                    ],
                    [
                        -89.332551,
                        31.323944
                    ],
                    [
                        -89.33254,
                        31.323659
                    ],
                    [
                        -89.332541,
                        31.323659
                    ],
                    [
                        -89.332554,
                        31.323469
                    ],
                    [
                        -89.332555,
                        31.32347
                    ],
                    [
                        -89.332558,
                        31.323066
                    ],
                    [
                        -89.332558,
                        31.323067
                    ],
                    [
                        -89.332539,
                        31.322758
                    ],
                    [
                        -89.332539,
                        31.322758
                    ],
                    [
                        -89.332523,
                        31.321059
                    ],
                    [
                        -89.332524,
                        31.321061
                    ],
                    [
                        -89.332357,
                        31.321035
                    ],
                    [
                        -89.332358,
                        31.321037
                    ],
                    [
                        -89.332096,
                        31.321025
                    ],
                    [
                        -89.332098,
                        31.321028
                    ],
                    [
                        -89.331975,
                        31.321028
                    ],
                    [
                        -89.331975,
                        31.321031
                    ],
                    [
                        -89.331615,
                        31.321028
                    ],
                    [
                        -89.331617,
                        31.321031
                    ],
                    [
                        -89.331351,
                        31.321037
                    ],
                    [
                        -89.331353,
                        31.32104
                    ],
                    [
                        -89.331151,
                        31.321033
                    ],
                    [
                        -89.331153,
                        31.321034
                    ],
                    [
                        -89.330842,
                        31.321037
                    ],
                    [
                        -89.330102,
                        31.320965
                    ],
                    [
                        -89.329009,
                        31.320983
                    ],
                    [
                        -89.328827,
                        31.320347
                    ],
                    [
                        -89.328268,
                        31.319032
                    ],
                    [
                        -89.327612,
                        31.317981
                    ],
                    [
                        -89.326936,
                        31.317197
                    ],
                    [
                        -89.325814,
                        31.316119
                    ],
                    [
                        -89.32444,
                        31.314775
                    ],
                    [
                        -89.323111,
                        31.313514
                    ],
                    [
                        -89.321588,
                        31.31206
                    ],
                    [
                        -89.320992,
                        31.311366
                    ],
                    [
                        -89.320975,
                        31.311255
                    ],
                    [
                        -89.32103,
                        31.311165
                    ],
                    [
                        -89.321219,
                        31.311052
                    ],
                    [
                        -89.321491,
                        31.310896
                    ],
                    [
                        -89.321592,
                        31.310807
                    ],
                    [
                        -89.321676,
                        31.310716
                    ],
                    [
                        -89.321714,
                        31.310575
                    ],
                    [
                        -89.321712,
                        31.310441
                    ],
                    [
                        -89.321702,
                        31.309673
                    ],
                    [
                        -89.321676,
                        31.309583
                    ],
                    [
                        -89.321642,
                        31.30952
                    ],
                    [
                        -89.321599,
                        31.309479
                    ],
                    [
                        -89.32144,
                        31.309402
                    ],
                    [
                        -89.321151,
                        31.309389
                    ],
                    [
                        -89.320613,
                        31.309388
                    ],
                    [
                        -89.319914,
                        31.309383
                    ],
                    [
                        -89.319864,
                        31.309299
                    ],
                    [
                        -89.319759,
                        31.309024
                    ],
                    [
                        -89.319579,
                        31.308843
                    ],
                    [
                        -89.319511,
                        31.308769
                    ],
                    [
                        -89.319415,
                        31.308647
                    ],
                    [
                        -89.3194,
                        31.308512
                    ],
                    [
                        -89.319396,
                        31.308246
                    ],
                    [
                        -89.319403,
                        31.308035
                    ]
                ]
            }
        }
    ]
}