{
    "type": "FeatureCollection",
    "features": [
        {
            "type": "Feature",
            "geometry": {
                "type": "LineString",
                "coordinates": [
                    [
                        -89.285652,
                        31.327753
                    ],
                    [
                        -89.285776,
                        31.327636
                    ],
                    [
                        -89.285758,
                        31.327602
                    ],
                    [
                        -89.285722,
                        31.327571
                    ],
                    [
                        -89.285647,
                        31.327509
                    ],
                    [
                        -89.285625,
                        31.327482
                    ],
                    [
                        -89.285692,
                        31.327461
                    ],
                    [
                        -89.285911,
                        31.327232
                    ],
                    [
                        -89.286074,
                        31.327047
                    ],
                    [
                        -89.286277,
                        31.326872
                    ],
                    [
                        -89.286307,
                        31.32683
                    ],
                    [
                        -89.286294,
                        31.32679
                    ],
                    [
                        -89.285801,
                        31.326389
                    ],
                    [
                        -89.285156,
                        31.325835
                    ],
                    [
                        -89.284227,
                        31.325123
                    ],
                    [
                        -89.284121,
                        31.325051
                    ],
                    [
                        -89.283649,
                        31.325013
                    ],
                    [
                        -89.282458,
                        31.325021
                    ],
                    [
                        -89.281874,
                        31.325026
                    ],
                    [
                        -89.280087,
                        31.325044
                    ],
                    [
                        -89.280091,
                        31.324621
                    ],
                    [
                        -89.280095,
                        31.323937
                    ],
                    [
                        -89.28009,
                        31.322991
                    ],
                    [
                        -89.280078,
                        31.321853
                    ],
                    [
                        -89.280085,
                        31.319833
                    ],
                    [
                        -89.28009,
                        31.31871
                    ],
                    [
                        -89.280096,
                        31.318321
                    ],
                    [
                        -89.280074,
                        31.317504
                    ],
                    [
                        -89.280047,
                        31.316286
                    ],
                    [
                        -89.280025,
                        31.315786
                    ],
                    [
                        -89.282974,
                        31.315726
                    ],
                    [
                        -89.283046,
                        31.315722
                    ],
                    [
                        -89.283243,
                        31.315991
                    ],
                    [
                        -89.283437,
                        31.316137
                    ],
                    [
                        -89.28362,
                        31.316196
                    ],
                    [
                        -89.284117,
                        31.316199
                    ],
                    [
                        -89.284246,
                        31.316214
                    ],
                    [
                        -89.284518,
                        31.316299
                    ],
                    [
                        -89.284905,
                        31.316442
                    ],
                    [
                        -89.284977,
                        31.316459
                    ],
                    [
                        -89.285061,
                        31.316459
                    ],
                    [
                        -89.285092,
                        31.31635
                    ],
                    [
                        -89.285102,
                        31.316109
                    ],
                    [
                        -89.2851,
                        31.315885
                    ],
                    [
                        -89.285108,
                        31.314815
                    ],
                    [
                        -89.28509,
                        31.313925
                    ],
                    [
                        -89.28509,
                        31.312971
                    ],
                    [
                        -89.285087,
                        31.311853
                    ],
                    [
                        -89.285079,
                        31.310972
                    ],
                    [
                        -89.285079,
                        31.309783
                    ],
                    [
                        -89.285079,
                        31.308751
                    ],
                    [
                        -89.285074,
                        31.307192
                    ],
                    [
                        -89.285077,
                        31.306254
                    ],
                    [
                        -89.285077,
                        31.306237
                    ],
                    [
                        -89.286463,
                        31.306235
                    ],
                    [
                        -89.28806,
                        31.306237
                    ],
                    [
                        -89.28953,
                        31.306235
                    ],
                    [
                        -89.291197,
                        31.306232
                    ],
                    [
                        -89.292534,
                        31.306235
                    ],
                    [
                        -89.294055,
                        31.30623
                    ],
                    [
                        -89.294076,
                        31.306232
                    ],
                    [
                        -89.294071,
                        31.307045
                    ],
                    [
                        -89.294066,
                        31.308142
                    ],
                    [
                        -89.294063,
                        31.308847
                    ],
                    [
                        -89.294068,
                        31.309351
                    ],
                    [
                        -89.294084,
                        31.310152
                    ],
                    [
                        -89.294087,
                        31.310199
                    ],
                    [
                        -89.294662,
                        31.310204
                    ],
                    [
                        -89.294685,
                        31.310204
                    ],
                    [
                        -89.294664,
                        31.3105
                    ],
                    [
                        -89.294664,
                        31.31076
                    ],
                    [
                        -89.294641,
                        31.311417
                    ],
                    [
                        -89.294639,
                        31.312112
                    ],
                    [
                        -89.294664,
                        31.312609
                    ],
                    [
                        -89.29467,
                        31.313289
                    ],
                    [
                        -89.294677,
                        31.313751
                    ],
                    [
                        -89.294672,
                        31.314614
                    ],
                    [
                        -89.29469,
                        31.315696
                    ],
                    [
                        -89.294698,
                        31.315755
                    ],
                    [
                        -89.295642,
                        31.315768
                    ],
                    [
                        -89.296205,
                        31.315759
                    ],
                    [
                        -89.296217,
                        31.315902
                    ],
                    [
                        -89.296202,
                        31.316758
                    ],
                    [
                        -89.296205,
                        31.317453
                    ],
                    [
                        -89.296191,
                        31.317482
                    ],
                    [
                        -89.296147,
                        31.317458
                    ],
                    [
                        -89.295032,
                        31.317454
                    ],
                    [
                        -89.294049,
                        31.317447
                    ],
                    [
                        -89.293096,
                        31.317427
                    ],
                    [
                        -89.29162,
                        31.317434
                    ],
                    [
                        -89.291588,
                        31.317449
                    ],
                    [
                        -89.291577,
                        31.318152
                    ],
                    [
                        -89.291583,
                        31.319089
                    ],
                    [
                        -89.291585,
                        31.321087
                    ],
                    [
                        -89.291575,
                        31.321882
                    ],
                    [
                        -89.291581,
                        31.32193
                    ],
                    [
                        -89.29283,
                        31.321933
                    ],
                    [
                        -89.293792,
                        31.321768
                    ],
                    [
                        -89.293925,
                        31.321797
                    ],
                    [
                        -89.294036,
                        31.321854
                    ],
                    [
                        -89.294431,
                        31.322187
                    ],
                    [
                        -89.295007,
                        31.322686
                    ],
                    [
                        -89.295079,
                        31.322708
                    ],
                    [
                        -89.296177,
                        31.321808
                    ],
                    [
                        -89.296543,
                        31.321492
                    ],
                    [
                        -89.297343,
                        31.320761
                    ],
                    [
                        -89.298331,
                        31.319862
                    ],
                    [
                        -89.298831,
                        31.319437
                    ],
                    [
                        -89.299404,
                        31.318971
                    ],
                    [
                        -89.301127,
                        31.317444
                    ],
                    [
                        -89.301395,
                        31.317217
                    ],
                    [
                        -89.301685,
                        31.317094
                    ],
                    [
                        -89.302216,
                        31.316965
                    ],
                    [
                        -89.303529,
                        31.31666
                    ],
                    [
                        -89.303686,
                        31.3168
                    ],
                    [
                        -89.303734,
                        31.316818
                    ],
                    [
                        -89.303988,
                        31.316584
                    ],
                    [
                        -89.304034,
                        31.316524
                    ],
                    [
                        -89.304268,
                        31.316465
                    ],
                    [
                        -89.305458,
                        31.316211
                    ],
                    [
                        -89.305717,
                        31.316152
                    ],
                    [
                        -89.306365,
                        31.315942
                    ],
                    [
                        -89.306981,
                        31.315664
                    ],
                    [
                        -89.30747,
                        31.315343
                    ],
                    [
                        -89.308342,
                        31.3146
                    ],
                    [
                        -89.309125,
                        31.313921
                    ],
                    [
                        -89.309451,
                        31.313637
                    ],
                    [
                        -89.310558,
                        31.312671
                    ],
                    [
                        -89.311597,
                        31.311745
                    ],
                    [
                        -89.31227,
                        31.311149
                    ],
                    [
                        -89.312414,
                        31.311273
                    ],
                    [
                        -89.312555,
                        31.311339
                    ],
                    [
                        -89.313257,
                        31.311344
                    ],
                    [
                        -89.314245,
                        31.311346
                    ],
                    [
                        -89.314327,
                        31.311335
                    ],
                    [
                        -89.314339,
                        31.310748
                    ],
                    [
                        -89.314329,
                        31.309753
                    ],
                    [
                        -89.314302,
                        31.309647
                    ],
                    [
                        -89.314308,
                        31.30962
                    ],
                    [
                        -89.31456,
                        31.309461
                    ],
                    [
                        -89.314759,
                        31.309373
                    ],
                    [
                        -89.31507,
                        31.309244
                    ],
                    [
                        -89.315324,
                        31.30916
                    ],
                    [
                        -89.315579,
                        31.309086
                    ],
                    [
                        -89.315929,
                        31.309021
                    ],
                    [
                        -89.316174,
                        31.308992
                    ],
                    [
                        -89.316503,
                        31.308989
                    ],
                    [
                        -89.316781,
                        31.308999
                    ],
                    [
                        -89.317154,
                        31.30906
                    ],
                    [
                        -89.317389,
                        31.309103
                    ],
                    [
                        -89.318108,
                        31.309333
                    ],
                    [
                        -89.318075,
                        31.30943
                    ],
                    [
                        -89.31805,
                        31.309501
                    ],
                    [
                        -89.318058,
                        31.31012
                    ],
                    [
                        -89.31805,
                        31.310526
                    ],
                    [
                        -89.318046,
                        31.311382
                    ],
                    [
                        -89.318057,
                        31.31141
                    ],
                    [
                        -89.318466,
                        31.31141
                    ],
                    [
                        -89.318626,
                        31.311421
                    ],
                    [
                        -89.31972,
                        31.31141
                    ],
                    [
                        -89.319871,
                        31.311424
                    ],
                    [
                        -89.320075,
                        31.311455
                    ],
                    [
                        -89.320378,
                        31.311444
                    ],
                    [
                        -89.320837,
                        31.311242
                    ],
                    [
                        -89.321401,
                        31.310933
                    ],
                    [
                        -89.321587,
                        31.310775
                    ],
                    [
                        -89.321654,
                        31.31067
                    ],
                    [
                        -89.321696,
                        31.310487
                    ],
                    [
                        -89.321683,
                        31.30993
                    ],
                    [
                        -89.321675,
                        31.309635
                    ],
                    [
                        -89.321582,
                        31.309509
                    ],
                    [
                        -89.321411,
                        31.309426
                    ],
                    [
                        -89.321298,
                        31.309406
                    ],
                    [
                        -89.320519,
                        31.309396
                    ],
                    [
                        -89.319905,
                        31.309406
                    ],
                    [
                        -89.319854,
                        31.309406
                    ],
                    [
                        -89.319846,
                        31.309166
                    ],
                    [
                        -89.319606,
                        31.308871
                    ],
                    [
                        -89.319395,
                        31.308671
                    ],
                    [
                        -89.319387,
                        31.308038
                    ],
                    [
                        -89.319383,
                        31.30764
                    ],
                    [
                        -89.319383,
                        31.307629
                    ],
                    [
                        -89.318583,
                        31.307625
                    ],
                    [
                        -89.318642,
                        31.307057
                    ],
                    [
                        -89.318663,
                        31.306336
                    ],
                    [
                        -89.318718,
                        31.306192
                    ],
                    [
                        -89.319126,
                        31.305519
                    ],
                    [
                        -89.319231,
                        31.305401
                    ],
                    [
                        -89.319383,
                        31.305318
                    ],
                    [
                        -89.319791,
                        31.305278
                    ],
                    [
                        -89.321826,
                        31.305246
                    ],
                    [
                        -89.321961,
                        31.305203
                    ],
                    [
                        -89.3221,
                        31.305084
                    ],
                    [
                        -89.322162,
                        31.305016
                    ],
                    [
                        -89.322192,
                        31.304545
                    ],
                    [
                        -89.322196,
                        31.304174
                    ],
                    [
                        -89.322192,
                        31.304103
                    ],
                    [
                        -89.322055,
                        31.304096
                    ],
                    [
                        -89.320595,
                        31.304061
                    ],
                    [
                        -89.317179,
                        31.304093
                    ],
                    [
                        -89.314423,
                        31.304132
                    ],
                    [
                        -89.314343,
                        31.304165
                    ],
                    [
                        -89.314225,
                        31.304647
                    ],
                    [
                        -89.314007,
                        31.304895
                    ],
                    [
                        -89.313596,
                        31.3052
                    ],
                    [
                        -89.313175,
                        31.30565
                    ],
                    [
                        -89.312209,
                        31.306798
                    ],
                    [
                        -89.312003,
                        31.307032
                    ],
                    [
                        -89.311187,
                        31.307999
                    ],
                    [
                        -89.309762,
                        31.30972
                    ],
                    [
                        -89.309257,
                        31.310195
                    ],
                    [
                        -89.308399,
                        31.310961
                    ],
                    [
                        -89.307047,
                        31.312128
                    ],
                    [
                        -89.307274,
                        31.31234
                    ],
                    [
                        -89.308078,
                        31.313005
                    ],
                    [
                        -89.309087,
                        31.313863
                    ],
                    [
                        -89.309126,
                        31.313877
                    ],
                    [
                        -89.308131,
                        31.314735
                    ],
                    [
                        -89.307454,
                        31.315304
                    ],
                    [
                        -89.307191,
                        31.31549
                    ],
                    [
                        -89.306412,
                        31.315886
                    ],
                    [
                        -89.305644,
                        31.316128
                    ],
                    [
                        -89.304872,
                        31.316302
                    ],
                    [
                        -89.303603,
                        31.316597
                    ],
                    [
                        -89.301647,
                        31.317065
                    ],
                    [
                        -89.301411,
                        31.317124
                    ],
                    [
                        -89.301284,
                        31.317238
                    ],
                    [
                        -89.29928,
                        31.318967
                    ],
                    [
                        -89.297368,
                        31.320605
                    ],
                    [
                        -89.296988,
                        31.320968
                    ],
                    [
                        -89.295063,
                        31.322634
                    ],
                    [
                        -89.293921,
                        31.32365
                    ],
                    [
                        -89.293008,
                        31.324404
                    ],
                    [
                        -89.292703,
                        31.32468
                    ],
                    [
                        -89.292678,
                        31.324707
                    ],
                    [
                        -89.292056,
                        31.324707
                    ],
                    [
                        -89.291661,
                        31.324729
                    ],
                    [
                        -89.291458,
                        31.324848
                    ],
                    [
                        -89.290951,
                        31.325282
                    ],
                    [
                        -89.290615,
                        31.325596
                    ],
                    [
                        -89.289645,
                        31.326391
                    ],
                    [
                        -89.289169,
                        31.32598
                    ],
                    [
                        -89.288344,
                        31.325308
                    ],
                    [
                        -89.288203,
                        31.325183
                    ],
                    [
                        -89.286446,
                        31.326727
                    ],
                    [
                        -89.286219,
                        31.326869
                    ],
                    [
                        -89.286095,
                        31.326965
                    ],
                    [
                        -89.285737,
                        31.327351
                    ],
                    [
                        -89.285396,
                        31.327638
                    ],
                    [
                        -89.285339,
                        31.327708
                    ],
                    [
                        -89.285485,
                        31.327818
                    ],
                    [
                        -89.285528,
                        31.327855
                    ],
                    [
                        -89.285651,
                        31.327752
                    ]
                ]
            },
            "properties": {}
        },
        {
            "type": "Feature",
            "geometry": {
                "type": "Point",
                "coordinates": [
                    -89.28568,
                    31.327789
                ]
            },
            "properties": {
                "name": "Train Depot",
                "stopNum": 1
            }
        },
        {
            "type": "Feature",
            "geometry": {
                "type": "Point",
                "coordinates": [
                    -89.284374,
                    31.325177
                ]
            },
            "properties": {
                "name": "River Ave and Williams St",
                "stopNum": 2
            }
        },
        {
            "type": "Feature",
            "geometry": {
                "type": "Point",
                "coordinates": [
                    -89.294066,
                    31.310128
                ]
            },
            "properties": {
                "name": "Cypress St and Penton St",
                "stopNum": 11
            }
        },
        {
            "type": "Feature",
            "geometry": {
                "type": "Point",
                "coordinates": [
                    -89.294632,
                    31.312783
                ]
            },
            "properties": {
                "name": "Wills Av and John St",
                "stopNum": 12
            }
        },
        {
            "type": "Feature",
            "geometry": {
                "type": "Point",
                "coordinates": [
                    -89.295351,
                    31.3157
                ]
            },
            "properties": {
                "name": "Katie St and Charles St",
                "stopNum": 13
            }
        },
        {
            "type": "Feature",
            "geometry": {
                "type": "Point",
                "coordinates": [
                    -89.293096,
                    31.317427
                ]
            },
            "properties": {
                "name": "Hall St and Dabbs St",
                "stopNum": 14
            }
        },
        {
            "type": "Feature",
            "geometry": {
                "type": "Point",
                "coordinates": [
                    -89.299304,
                    31.318923
                ]
            },
            "properties": {
                "name": "6th Av and W Pine St",
                "stopNum": 15
            }
        },
        {
            "type": "Feature",
            "geometry": {
                "type": "Point",
                "coordinates": [
                    -89.303768,
                    31.316728
                ]
            },
            "properties": {
                "name": "Broadway Dr and Corinne St",
                "stopNum": 16
            }
        },
        {
            "type": "Feature",
            "geometry": {
                "type": "Point",
                "coordinates": [
                    -89.309203,
                    31.314042
                ]
            },
            "properties": {
                "name": "Broadway Dr and Timothy Ln",
                "stopNum": 17
            }
        },
        {
            "type": "Feature",
            "geometry": {
                "type": "Point",
                "coordinates": [
                    -89.313111,
                    31.311417
                ]
            },
            "properties": {
                "name": "Bartur St and Broadway St",
                "stopNum": 18
            }
        },
        {
            "type": "Feature",
            "geometry": {
                "type": "Point",
                "coordinates": [
                    -89.315338,
                    31.309199
                ]
            },
            "properties": {
                "name": "Service Rd at Cloverleaf Center - South side",
                "stopNum": 19
            }
        },
        {
            "type": "Feature",
            "geometry": {
                "type": "Point",
                "coordinates": [
                    -89.317998,
                    31.310051
                ]
            },
            "properties": {
                "name": "Service Rd at Cloverleaf Center - SW side",
                "stopNum": 20
            }
        },
        {
            "type": "Feature",
            "geometry": {
                "type": "Point",
                "coordinates": [
                    -89.28016,
                    31.32408
                ]
            },
            "properties": {
                "name": "Mc Innis and Tipton",
                "stopNum": 3
            }
        },
        {
            "type": "Feature",
            "geometry": {
                "type": "Point",
                "coordinates": [
                    -89.318393,
                    31.311486
                ]
            },
            "properties": {
                "name": "Cloverleaf Mall",
                "stopNum": 21
            }
        },
        {
            "type": "Feature",
            "geometry": {
                "type": "Point",
                "coordinates": [
                    -89.319411,
                    31.308037
                ]
            },
            "properties": {
                "name": "Walmart @ 49",
                "stopNum": 22
            }
        },
        {
            "type": "Feature",
            "geometry": {
                "type": "Point",
                "coordinates": [
                    -89.322265,
                    31.304955
                ]
            },
            "properties": {
                "name": "Roosevelt Blvd Before Lincoln Rd",
                "stopNum": 23
            }
        },
        {
            "type": "Feature",
            "geometry": {
                "type": "Point",
                "coordinates": [
                    -89.318069,
                    31.304072
                ]
            },
            "properties": {
                "name": "Lincoln Rd and Hill St (Central Sunbelt Bank)",
                "stopNum": 24
            }
        },
        {
            "type": "Feature",
            "geometry": {
                "type": "Point",
                "coordinates": [
                    -89.313183,
                    31.305592
                ]
            },
            "properties": {
                "name": "Service Dr and W Pine St",
                "stopNum": 25
            }
        },
        {
            "type": "Feature",
            "geometry": {
                "type": "Point",
                "coordinates": [
                    -89.308107,
                    31.311172
                ]
            },
            "properties": {
                "name": "W Pine St by Health Dept",
                "stopNum": 26
            }
        },
        {
            "type": "Feature",
            "geometry": {
                "type": "Point",
                "coordinates": [
                    -89.309005,
                    31.313889
                ]
            },
            "properties": {
                "name": "Timothy Ln and Broadway",
                "stopNum": 27
            }
        },
        {
            "type": "Feature",
            "geometry": {
                "type": "Point",
                "coordinates": [
                    -89.305637,
                    31.316053
                ]
            },
            "properties": {
                "name": "Broadway Dr and Florence Ave",
                "stopNum": 28
            }
        },
        {
            "type": "Feature",
            "geometry": {
                "type": "Point",
                "coordinates": [
                    -89.299411,
                    31.318823
                ]
            },
            "properties": {
                "name": "Halls St and W Pine St",
                "stopNum": 29
            }
        },
        {
            "type": "Feature",
            "geometry": {
                "type": "Point",
                "coordinates": [
                    -89.294004,
                    31.32352
                ]
            },
            "properties": {
                "name": "W Pine St and 1st Ave",
                "stopNum": 30
            }
        },
        {
            "type": "Feature",
            "geometry": {
                "type": "Point",
                "coordinates": [
                    -89.280143,
                    31.319207
                ]
            },
            "properties": {
                "name": "Tipton St and Rebecca St",
                "stopNum": 4
            }
        },
        {
            "type": "Feature",
            "geometry": {
                "type": "Point",
                "coordinates": [
                    -89.29077,
                    31.325477
                ]
            },
            "properties": {
                "name": "Front St and Forrest St.",
                "stopNum": 31
            }
        },
        {
            "type": "Feature",
            "geometry": {
                "type": "Point",
                "coordinates": [
                    -89.289224,
                    31.325968
                ]
            },
            "properties": {
                "name": "Main St and Short St",
                "stopNum": 32
            }
        },
        {
            "type": "Feature",
            "geometry": {
                "type": "Point",
                "coordinates": [
                    -89.280089,
                    31.31583
                ]
            },
            "properties": {
                "name": "Tipton St and Alcorn St",
                "stopNum": 5
            }
        },
        {
            "type": "Feature",
            "geometry": {
                "type": "Point",
                "coordinates": [
                    -89.282981,
                    31.315784
                ]
            },
            "properties": {
                "name": "James St and Alcorn St",
                "stopNum": 6
            }
        },
        {
            "type": "Feature",
            "geometry": {
                "type": "Point",
                "coordinates": [
                    -89.285191,
                    31.315761
                ]
            },
            "properties": {
                "name": "Edwards St and Katie St",
                "stopNum": 7
            }
        },
        {
            "type": "Feature",
            "geometry": {
                "type": "Point",
                "coordinates": [
                    -89.285146,
                    31.311939
                ]
            },
            "properties": {
                "name": "Edwards St and Duke Ave",
                "stopNum": 8
            }
        },
        {
            "type": "Feature",
            "geometry": {
                "type": "Point",
                "coordinates": [
                    -89.285146,
                    31.306306
                ]
            },
            "properties": {
                "name": "Edwards St and Tuscan Ave",
                "stopNum": 9
            }
        },
        {
            "type": "Feature",
            "geometry": {
                "type": "Point",
                "coordinates": [
                    -89.29403,
                    31.30636
                ]
            },
            "properties": {
                "name": "William Carey Pkwy and Tuscan Ave",
                "stopNum": 10
            }
        }
    ]
}