{
    "type": "FeatureCollection",
    "features": [
        {
            "type": "Feature",
            "geometry": {
                "type": "Point",
                "coordinates": [
                    -89.28568,
                    31.327789
                ]
            },
            "properties": {
                "name": "Train Depot",
                "stopNum": 1
            }
        },
        {
            "type": "Feature",
            "geometry": {
                "type": "Point",
                "coordinates": [
                    -89.287338,
                    31.324372
                ]
            },
            "properties": {
                "name": "Main St and Buschman St",
                "stopNum": 2
            }
        },
        {
            "type": "Feature",
            "geometry": {
                "type": "Point",
                "coordinates": [
                    -89.28573,
                    31.288183
                ]
            },
            "properties": {
                "name": "Edwards St and Barkley Rd",
                "stopNum": 11
            }
        },
        {
            "type": "Feature",
            "geometry": {
                "type": "Point",
                "coordinates": [
                    -89.288353,
                    31.28089
                ]
            },
            "properties": {
                "name": "Edwards St and Central School Rd",
                "stopNum": 12
            }
        },
        {
            "type": "Feature",
            "geometry": {
                "type": "Point",
                "coordinates": [
                    -89.288748,
                    31.277343
                ]
            },
            "properties": {
                "name": "Old Airport Rd and Edwards St",
                "stopNum": 13
            }
        },
        {
            "type": "Feature",
            "geometry": {
                "type": "Point",
                "coordinates": [
                    -89.28299,
                    31.27735
                ]
            },
            "properties": {
                "name": "Old Airport Rd at Family Health Center",
                "stopNum": 14
            }
        },
        {
            "type": "Feature",
            "geometry": {
                "type": "Point",
                "coordinates": [
                    -89.275759,
                    31.27732
                ]
            },
            "properties": {
                "name": "Old Airport Rd and Chancellor Rd",
                "stopNum": 15
            }
        },
        {
            "type": "Feature",
            "geometry": {
                "type": "Point",
                "coordinates": [
                    -89.271617,
                    31.277274
                ]
            },
            "properties": {
                "name": "Old Airport Rd and Hattiesburg Ave",
                "stopNum": 16
            }
        },
        {
            "type": "Feature",
            "geometry": {
                "type": "Point",
                "coordinates": [
                    -89.266919,
                    31.276429
                ]
            },
            "properties": {
                "name": "Sullivan St at Palmer's Crossing Apartments",
                "stopNum": 17
            }
        },
        {
            "type": "Feature",
            "geometry": {
                "type": "Point",
                "coordinates": [
                    -89.262814,
                    31.27818
                ]
            },
            "properties": {
                "name": "Tatum Rd and Hood Rd",
                "stopNum": 18
            }
        },
        {
            "type": "Feature",
            "geometry": {
                "type": "Point",
                "coordinates": [
                    -89.258825,
                    31.279239
                ]
            },
            "properties": {
                "name": "Tatum Rd and Steps Ave",
                "stopNum": 19
            }
        },
        {
            "type": "Feature",
            "geometry": {
                "type": "Point",
                "coordinates": [
                    -89.256175,
                    31.276015
                ]
            },
            "properties": {
                "name": "Travillion Rd and Steps Ave",
                "stopNum": 20
            }
        },
        {
            "type": "Feature",
            "geometry": {
                "type": "Point",
                "coordinates": [
                    -89.286377,
                    31.319069
                ]
            },
            "properties": {
                "name": "Bay St and Rebecca Av",
                "stopNum": 3
            }
        },
        {
            "type": "Feature",
            "geometry": {
                "type": "Point",
                "coordinates": [
                    -89.265518,
                    31.269089
                ]
            },
            "properties": {
                "name": "JM Tatum Industrial Dr at Georgia Pacific",
                "stopNum": 21
            }
        },
        {
            "type": "Feature",
            "geometry": {
                "type": "Point",
                "coordinates": [
                    -89.269767,
                    31.266931
                ]
            },
            "properties": {
                "name": "JM Tatum Industrial Dr at Kohler",
                "stopNum": 22
            }
        },
        {
            "type": "Feature",
            "geometry": {
                "type": "Point",
                "coordinates": [
                    -89.273118,
                    31.261948
                ]
            },
            "properties": {
                "name": "Lowery A Woodall Tech Center",
                "stopNum": 23
            }
        },
        {
            "type": "Feature",
            "geometry": {
                "type": "Point",
                "coordinates": [
                    -89.277744,
                    31.266379
                ]
            },
            "properties": {
                "name": "Southhill Dr and Sullivan Dr",
                "stopNum": 24
            }
        },
        {
            "type": "Feature",
            "geometry": {
                "type": "Point",
                "coordinates": [
                    -89.281544,
                    31.266617
                ]
            },
            "properties": {
                "name": "JM Tatum Industrial Dr at DMV",
                "stopNum": 25
            }
        },
        {
            "type": "Feature",
            "geometry": {
                "type": "Point",
                "coordinates": [
                    -89.296959,
                    31.285949
                ]
            },
            "properties": {
                "name": "PRCC",
                "stopNum": 26
            }
        },
        {
            "type": "Feature",
            "geometry": {
                "type": "Point",
                "coordinates": [
                    -89.288057,
                    31.281013
                ]
            },
            "properties": {
                "name": "Edwards St past Central School Rd",
                "stopNum": 27
            }
        },
        {
            "type": "Feature",
            "geometry": {
                "type": "Point",
                "coordinates": [
                    -89.284715,
                    31.28839
                ]
            },
            "properties": {
                "name": "Edwards St and Barkley Rd (return)",
                "stopNum": 28
            }
        },
        {
            "type": "Feature",
            "geometry": {
                "type": "Point",
                "coordinates": [
                    -89.284176,
                    31.292052
                ]
            },
            "properties": {
                "name": "McCall St and Collins Rd",
                "stopNum": 29
            }
        },
        {
            "type": "Feature",
            "geometry": {
                "type": "Point",
                "coordinates": [
                    -89.284149,
                    31.295537
                ]
            },
            "properties": {
                "name": "McCall St and Dixie Pine Rd",
                "stopNum": 30
            }
        },
        {
            "type": "Feature",
            "geometry": {
                "type": "Point",
                "coordinates": [
                    -89.29015,
                    31.315677
                ]
            },
            "properties": {
                "name": "Katie St and Arnold St",
                "stopNum": 4
            }
        },
        {
            "type": "Feature",
            "geometry": {
                "type": "Point",
                "coordinates": [
                    -89.282748,
                    31.301179
                ]
            },
            "properties": {
                "name": "Lilac St and Hattiesburg St (return)",
                "stopNum": 31
            }
        },
        {
            "type": "Feature",
            "geometry": {
                "type": "Point",
                "coordinates": [
                    -89.284984,
                    31.306122
                ]
            },
            "properties": {
                "name": "Tuscan St and Edwards St",
                "stopNum": 32
            }
        },
        {
            "type": "Feature",
            "geometry": {
                "type": "Point",
                "coordinates": [
                    -89.284993,
                    31.311947
                ]
            },
            "properties": {
                "name": "Edwards St and Duke Ave (return)",
                "stopNum": 33
            }
        },
        {
            "type": "Feature",
            "geometry": {
                "type": "Point",
                "coordinates": [
                    -89.285029,
                    31.315761
                ]
            },
            "properties": {
                "name": "Edwards St and Katie St (return)",
                "stopNum": 34
            }
        },
        {
            "type": "Feature",
            "geometry": {
                "type": "Point",
                "coordinates": [
                    -89.286305,
                    31.319077
                ]
            },
            "properties": {
                "name": "Bay St and Rebecca Av (return)",
                "stopNum": 35
            }
        },
        {
            "type": "Feature",
            "geometry": {
                "type": "Point",
                "coordinates": [
                    -89.287212,
                    31.324487
                ]
            },
            "properties": {
                "name": "Main St and Buschman St (return)",
                "stopNum": 36
            }
        },
        {
            "type": "Feature",
            "geometry": {
                "type": "Point",
                "coordinates": [
                    -89.285191,
                    31.315761
                ]
            },
            "properties": {
                "name": "Edwards St and Katie St",
                "stopNum": 5
            }
        },
        {
            "type": "Feature",
            "geometry": {
                "type": "Point",
                "coordinates": [
                    -89.285146,
                    31.311939
                ]
            },
            "properties": {
                "name": "Edwards St and Duke Ave",
                "stopNum": 6
            }
        },
        {
            "type": "Feature",
            "geometry": {
                "type": "Point",
                "coordinates": [
                    -89.285146,
                    31.306306
                ]
            },
            "properties": {
                "name": "Edwards St and Tuscan Ave",
                "stopNum": 7
            }
        },
        {
            "type": "Feature",
            "geometry": {
                "type": "Point",
                "coordinates": [
                    -89.282837,
                    31.301186
                ]
            },
            "properties": {
                "name": "Lilac St and Hattiesburg St",
                "stopNum": 8
            }
        },
        {
            "type": "Feature",
            "geometry": {
                "type": "Point",
                "coordinates": [
                    -89.286332,
                    31.296435
                ]
            },
            "properties": {
                "name": "Edwards St and Dixie Pine Rd",
                "stopNum": 9
            }
        },
        {
            "type": "Feature",
            "geometry": {
                "type": "Point",
                "coordinates": [
                    -89.286853,
                    31.293203
                ]
            },
            "properties": {
                "name": "Edwards St and Fellowship Center",
                "stopNum": 10
            }
        },
        {
            "type": "Feature",
            "properties": {},
            "geometry": {
                "type": "LineString",
                "coordinates": [
                    [
                        -89.285658,
                        31.327769
                    ],
                    [
                        -89.285792,
                        31.327643
                    ],
                    [
                        -89.285793,
                        31.327629
                    ],
                    [
                        -89.285642,
                        31.3275
                    ],
                    [
                        -89.285635,
                        31.327487
                    ],
                    [
                        -89.285805,
                        31.327337
                    ],
                    [
                        -89.285967,
                        31.327175
                    ],
                    [
                        -89.286118,
                        31.326994
                    ],
                    [
                        -89.286294,
                        31.326859
                    ],
                    [
                        -89.286628,
                        31.326678
                    ],
                    [
                        -89.287073,
                        31.326278
                    ],
                    [
                        -89.288194,
                        31.325259
                    ],
                    [
                        -89.288244,
                        31.325229
                    ],
                    [
                        -89.287844,
                        31.324889
                    ],
                    [
                        -89.286946,
                        31.324132
                    ],
                    [
                        -89.286746,
                        31.323925
                    ],
                    [
                        -89.286652,
                        31.323759
                    ],
                    [
                        -89.286513,
                        31.323391
                    ],
                    [
                        -89.28637,
                        31.322959
                    ],
                    [
                        -89.286334,
                        31.322726
                    ],
                    [
                        -89.286339,
                        31.322272
                    ],
                    [
                        -89.286348,
                        31.32194
                    ],
                    [
                        -89.286344,
                        31.321883
                    ],
                    [
                        -89.286367,
                        31.321819
                    ],
                    [
                        -89.286363,
                        31.321071
                    ],
                    [
                        -89.286341,
                        31.320117
                    ],
                    [
                        -89.286332,
                        31.318815
                    ],
                    [
                        -89.286336,
                        31.318109
                    ],
                    [
                        -89.286356,
                        31.317571
                    ],
                    [
                        -89.286439,
                        31.317471
                    ],
                    [
                        -89.286463,
                        31.317404
                    ],
                    [
                        -89.286458,
                        31.317349
                    ],
                    [
                        -89.286494,
                        31.317173
                    ],
                    [
                        -89.286537,
                        31.317134
                    ],
                    [
                        -89.286614,
                        31.316935
                    ],
                    [
                        -89.286628,
                        31.316714
                    ],
                    [
                        -89.286619,
                        31.316052
                    ],
                    [
                        -89.286619,
                        31.315802
                    ],
                    [
                        -89.286466,
                        31.315796
                    ],
                    [
                        -89.285748,
                        31.3158
                    ],
                    [
                        -89.285153,
                        31.315814
                    ],
                    [
                        -89.285113,
                        31.315812
                    ],
                    [
                        -89.28511,
                        31.315184
                    ],
                    [
                        -89.285105,
                        31.31429
                    ],
                    [
                        -89.285093,
                        31.31386
                    ],
                    [
                        -89.285091,
                        31.311546
                    ],
                    [
                        -89.285077,
                        31.308294
                    ],
                    [
                        -89.285081,
                        31.305961
                    ],
                    [
                        -89.285077,
                        31.304787
                    ],
                    [
                        -89.285081,
                        31.303961
                    ],
                    [
                        -89.285076,
                        31.303488
                    ],
                    [
                        -89.28505,
                        31.302941
                    ],
                    [
                        -89.28492,
                        31.302195
                    ],
                    [
                        -89.28272,
                        31.30217
                    ],
                    [
                        -89.282837,
                        31.301186
                    ],
                    [
                        -89.284671,
                        31.30119
                    ],
                    [
                        -89.284701,
                        31.30109
                    ],
                    [
                        -89.284708,
                        31.300684
                    ],
                    [
                        -89.28473,
                        31.300416
                    ],
                    [
                        -89.284861,
                        31.299969
                    ],
                    [
                        -89.285154,
                        31.299307
                    ],
                    [
                        -89.285614,
                        31.298577
                    ],
                    [
                        -89.285976,
                        31.298071
                    ],
                    [
                        -89.286122,
                        31.297803
                    ],
                    [
                        -89.286319,
                        31.297222
                    ],
                    [
                        -89.286422,
                        31.296423
                    ],
                    [
                        -89.286443,
                        31.295803
                    ],
                    [
                        -89.28656,
                        31.294997
                    ],
                    [
                        -89.286721,
                        31.294048
                    ],
                    [
                        -89.286823,
                        31.29325
                    ],
                    [
                        -89.286787,
                        31.292444
                    ],
                    [
                        -89.286765,
                        31.291924
                    ],
                    [
                        -89.286553,
                        31.290956
                    ],
                    [
                        -89.286042,
                        31.289461
                    ],
                    [
                        -89.285713,
                        31.288412
                    ],
                    [
                        -89.285632,
                        31.287789
                    ],
                    [
                        -89.285698,
                        31.287255
                    ],
                    [
                        -89.285778,
                        31.286887
                    ],
                    [
                        -89.286327,
                        31.285532
                    ],
                    [
                        -89.287269,
                        31.283174
                    ],
                    [
                        -89.288204,
                        31.280837
                    ],
                    [
                        -89.288585,
                        31.279723
                    ],
                    [
                        -89.28879,
                        31.279161
                    ],
                    [
                        -89.288983,
                        31.278597
                    ],
                    [
                        -89.28909,
                        31.278398
                    ],
                    [
                        -89.289269,
                        31.278136
                    ],
                    [
                        -89.289452,
                        31.277913
                    ],
                    [
                        -89.289506,
                        31.27786
                    ],
                    [
                        -89.289241,
                        31.277641
                    ],
                    [
                        -89.289025,
                        31.277494
                    ],
                    [
                        -89.288754,
                        31.277391
                    ],
                    [
                        -89.288534,
                        31.277371
                    ],
                    [
                        -89.288294,
                        31.277371
                    ],
                    [
                        -89.287832,
                        31.277371
                    ],
                    [
                        -89.286907,
                        31.277371
                    ],
                    [
                        -89.285061,
                        31.277373
                    ],
                    [
                        -89.285061,
                        31.277373
                    ],
                    [
                        -89.28127,
                        31.277385
                    ],
                    [
                        -89.277447,
                        31.277364
                    ],
                    [
                        -89.275543,
                        31.277337
                    ],
                    [
                        -89.274599,
                        31.277324
                    ],
                    [
                        -89.273641,
                        31.277291
                    ],
                    [
                        -89.273437,
                        31.277273
                    ],
                    [
                        -89.271556,
                        31.277308
                    ],
                    [
                        -89.269316,
                        31.277427
                    ],
                    [
                        -89.268854,
                        31.277483
                    ],
                    [
                        -89.268606,
                        31.277529
                    ],
                    [
                        -89.268382,
                        31.277562
                    ],
                    [
                        -89.268375,
                        31.277518
                    ],
                    [
                        -89.268154,
                        31.275802
                    ],
                    [
                        -89.268121,
                        31.275797
                    ],
                    [
                        -89.267846,
                        31.275976
                    ],
                    [
                        -89.267189,
                        31.276342
                    ],
                    [
                        -89.266963,
                        31.276488
                    ],
                    [
                        -89.266622,
                        31.27678
                    ],
                    [
                        -89.266105,
                        31.277377
                    ],
                    [
                        -89.265923,
                        31.277631
                    ],
                    [
                        -89.265896,
                        31.277678
                    ],
                    [
                        -89.265703,
                        31.277725
                    ],
                    [
                        -89.264426,
                        31.278016
                    ],
                    [
                        -89.263883,
                        31.278087
                    ],
                    [
                        -89.263179,
                        31.278157
                    ],
                    [
                        -89.262821,
                        31.278185
                    ],
                    [
                        -89.26218,
                        31.278203
                    ],
                    [
                        -89.261539,
                        31.278263
                    ],
                    [
                        -89.260709,
                        31.27849
                    ],
                    [
                        -89.259332,
                        31.279071
                    ],
                    [
                        -89.259024,
                        31.279241
                    ],
                    [
                        -89.258922,
                        31.279308
                    ],
                    [
                        -89.258822,
                        31.279239
                    ],
                    [
                        -89.258531,
                        31.278925
                    ],
                    [
                        -89.258002,
                        31.278289
                    ],
                    [
                        -89.257052,
                        31.277147
                    ],
                    [
                        -89.256131,
                        31.276066
                    ],
                    [
                        -89.254795,
                        31.274447
                    ],
                    [
                        -89.254689,
                        31.274323
                    ],
                    [
                        -89.253951,
                        31.273442
                    ],
                    [
                        -89.253864,
                        31.273292
                    ],
                    [
                        -89.253861,
                        31.273272
                    ],
                    [
                        -89.255412,
                        31.27325
                    ],
                    [
                        -89.257116,
                        31.273219
                    ],
                    [
                        -89.258652,
                        31.273205
                    ],
                    [
                        -89.259691,
                        31.273169
                    ],
                    [
                        -89.26036,
                        31.273055
                    ],
                    [
                        -89.261052,
                        31.272828
                    ],
                    [
                        -89.261551,
                        31.272573
                    ],
                    [
                        -89.261926,
                        31.272335
                    ],
                    [
                        -89.262657,
                        31.271662
                    ],
                    [
                        -89.26377,
                        31.270611
                    ],
                    [
                        -89.264885,
                        31.269569
                    ],
                    [
                        -89.265678,
                        31.268818
                    ],
                    [
                        -89.266653,
                        31.268127
                    ],
                    [
                        -89.26707,
                        31.267882
                    ],
                    [
                        -89.26766,
                        31.267572
                    ],
                    [
                        -89.268352,
                        31.267276
                    ],
                    [
                        -89.268997,
                        31.267051
                    ],
                    [
                        -89.269782,
                        31.266838
                    ],
                    [
                        -89.270523,
                        31.266689
                    ],
                    [
                        -89.271282,
                        31.266587
                    ],
                    [
                        -89.272433,
                        31.266537
                    ],
                    [
                        -89.272502,
                        31.266452
                    ],
                    [
                        -89.272644,
                        31.2662
                    ],
                    [
                        -89.272992,
                        31.265585
                    ],
                    [
                        -89.27349,
                        31.264815
                    ],
                    [
                        -89.273823,
                        31.264304
                    ],
                    [
                        -89.274502,
                        31.263273
                    ],
                    [
                        -89.274604,
                        31.263103
                    ],
                    [
                        -89.274723,
                        31.262803
                    ],
                    [
                        -89.274817,
                        31.262487
                    ],
                    [
                        -89.274938,
                        31.261944
                    ],
                    [
                        -89.274957,
                        31.26182
                    ],
                    [
                        -89.27386,
                        31.261666
                    ],
                    [
                        -89.273758,
                        31.261674
                    ],
                    [
                        -89.27321,
                        31.262047
                    ],
                    [
                        -89.273103,
                        31.262009
                    ],
                    [
                        -89.272938,
                        31.261974
                    ],
                    [
                        -89.272751,
                        31.261974
                    ],
                    [
                        -89.272571,
                        31.262112
                    ],
                    [
                        -89.272514,
                        31.262319
                    ],
                    [
                        -89.272585,
                        31.262566
                    ],
                    [
                        -89.272694,
                        31.262639
                    ],
                    [
                        -89.273071,
                        31.262657
                    ],
                    [
                        -89.273213,
                        31.262631
                    ],
                    [
                        -89.273521,
                        31.262453
                    ],
                    [
                        -89.273863,
                        31.2622
                    ],
                    [
                        -89.274193,
                        31.262007
                    ],
                    [
                        -89.274262,
                        31.261754
                    ],
                    [
                        -89.274909,
                        31.261836
                    ],
                    [
                        -89.274772,
                        31.26246
                    ],
                    [
                        -89.275635,
                        31.262634
                    ],
                    [
                        -89.275901,
                        31.262661
                    ],
                    [
                        -89.276271,
                        31.262801
                    ],
                    [
                        -89.276672,
                        31.26287
                    ],
                    [
                        -89.277495,
                        31.262923
                    ],
                    [
                        -89.277644,
                        31.262949
                    ],
                    [
                        -89.277737,
                        31.263018
                    ],
                    [
                        -89.277758,
                        31.263091
                    ],
                    [
                        -89.277763,
                        31.263296
                    ],
                    [
                        -89.277777,
                        31.266448
                    ],
                    [
                        -89.277787,
                        31.266513
                    ],
                    [
                        -89.279956,
                        31.26656
                    ],
                    [
                        -89.281625,
                        31.266568
                    ],
                    [
                        -89.283852,
                        31.26658
                    ],
                    [
                        -89.28407,
                        31.266655
                    ],
                    [
                        -89.284395,
                        31.266693
                    ],
                    [
                        -89.284594,
                        31.266677
                    ],
                    [
                        -89.284758,
                        31.266635
                    ],
                    [
                        -89.287972,
                        31.274484
                    ],
                    [
                        -89.289081,
                        31.276689
                    ],
                    [
                        -89.289704,
                        31.277341
                    ],
                    [
                        -89.292545,
                        31.280213
                    ],
                    [
                        -89.294977,
                        31.282814
                    ],
                    [
                        -89.296148,
                        31.284035
                    ],
                    [
                        -89.297481,
                        31.285401
                    ],
                    [
                        -89.297495,
                        31.285414
                    ],
                    [
                        -89.297365,
                        31.285444
                    ],
                    [
                        -89.296765,
                        31.285854
                    ],
                    [
                        -89.296457,
                        31.286057
                    ],
                    [
                        -89.296294,
                        31.285875
                    ],
                    [
                        -89.296095,
                        31.285666
                    ],
                    [
                        -89.296054,
                        31.28565
                    ],
                    [
                        -89.29594,
                        31.285728
                    ],
                    [
                        -89.29588,
                        31.285811
                    ],
                    [
                        -89.295775,
                        31.286207
                    ],
                    [
                        -89.295738,
                        31.286344
                    ],
                    [
                        -89.295808,
                        31.286364
                    ],
                    [
                        -89.295905,
                        31.286344
                    ],
                    [
                        -89.295955,
                        31.286334
                    ],
                    [
                        -89.296269,
                        31.286159
                    ],
                    [
                        -89.296348,
                        31.286111
                    ],
                    [
                        -89.296472,
                        31.286092
                    ],
                    [
                        -89.296525,
                        31.286106
                    ],
                    [
                        -89.29662,
                        31.286098
                    ],
                    [
                        -89.296678,
                        31.286071
                    ],
                    [
                        -89.297458,
                        31.285555
                    ],
                    [
                        -89.297528,
                        31.285447
                    ],
                    [
                        -89.297567,
                        31.285386
                    ],
                    [
                        -89.296403,
                        31.284183
                    ],
                    [
                        -89.295355,
                        31.283084
                    ],
                    [
                        -89.294172,
                        31.281835
                    ],
                    [
                        -89.292043,
                        31.2796
                    ],
                    [
                        -89.290837,
                        31.278345
                    ],
                    [
                        -89.29039,
                        31.277769
                    ],
                    [
                        -89.290004,
                        31.277379
                    ],
                    [
                        -89.289942,
                        31.277336
                    ],
                    [
                        -89.289874,
                        31.277336
                    ],
                    [
                        -89.289597,
                        31.277649
                    ],
                    [
                        -89.28921,
                        31.278103
                    ],
                    [
                        -89.288995,
                        31.278425
                    ],
                    [
                        -89.288928,
                        31.278597
                    ],
                    [
                        -89.288571,
                        31.279582
                    ],
                    [
                        -89.288174,
                        31.280664
                    ],
                    [
                        -89.287905,
                        31.281351
                    ],
                    [
                        -89.287097,
                        31.283391
                    ],
                    [
                        -89.286697,
                        31.284344
                    ],
                    [
                        -89.28571,
                        31.28681
                    ],
                    [
                        -89.285615,
                        31.287104
                    ],
                    [
                        -89.285554,
                        31.2875
                    ],
                    [
                        -89.28556,
                        31.288135
                    ],
                    [
                        -89.285621,
                        31.288368
                    ],
                    [
                        -89.285621,
                        31.28841
                    ],
                    [
                        -89.284494,
                        31.288401
                    ],
                    [
                        -89.284184,
                        31.288396
                    ],
                    [
                        -89.284189,
                        31.288998
                    ],
                    [
                        -89.28416,
                        31.290539
                    ],
                    [
                        -89.284174,
                        31.294049
                    ],
                    [
                        -89.284199,
                        31.29554
                    ],
                    [
                        -89.284194,
                        31.296032
                    ],
                    [
                        -89.284221,
                        31.297262
                    ],
                    [
                        -89.284221,
                        31.299933
                    ],
                    [
                        -89.284221,
                        31.299958
                    ],
                    [
                        -89.282945,
                        31.299937
                    ],
                    [
                        -89.282788,
                        31.300019
                    ],
                    [
                        -89.282759,
                        31.300531
                    ],
                    [
                        -89.282759,
                        31.301192
                    ],
                    [
                        -89.282771,
                        31.301241
                    ],
                    [
                        -89.284685,
                        31.301236
                    ],
                    [
                        -89.28489,
                        31.302298
                    ],
                    [
                        -89.28498,
                        31.302986
                    ],
                    [
                        -89.285004,
                        31.303157
                    ],
                    [
                        -89.285009,
                        31.303413
                    ],
                    [
                        -89.285018,
                        31.303979
                    ],
                    [
                        -89.285011,
                        31.304546
                    ],
                    [
                        -89.285006,
                        31.304855
                    ],
                    [
                        -89.285006,
                        31.306128
                    ],
                    [
                        -89.285019,
                        31.308422
                    ],
                    [
                        -89.28502,
                        31.310274
                    ],
                    [
                        -89.284993,
                        31.311947
                    ],
                    [
                        -89.285029,
                        31.315761
                    ],
                    [
                        -89.285067,
                        31.316397
                    ],
                    [
                        -89.285033,
                        31.316442
                    ],
                    [
                        -89.285014,
                        31.316499
                    ],
                    [
                        -89.285557,
                        31.316804
                    ],
                    [
                        -89.285976,
                        31.317089
                    ],
                    [
                        -89.286119,
                        31.317252
                    ],
                    [
                        -89.286076,
                        31.317374
                    ],
                    [
                        -89.286076,
                        31.317467
                    ],
                    [
                        -89.286148,
                        31.317537
                    ],
                    [
                        -89.286191,
                        31.317557
                    ],
                    [
                        -89.2862,
                        31.319098
                    ],
                    [
                        -89.285086,
                        31.319127
                    ],
                    [
                        -89.2851,
                        31.319578
                    ],
                    [
                        -89.285143,
                        31.319843
                    ],
                    [
                        -89.285176,
                        31.319912
                    ],
                    [
                        -89.2852,
                        31.319916
                    ],
                    [
                        -89.285252,
                        31.319916
                    ],
                    [
                        -89.286195,
                        31.319916
                    ],
                    [
                        -89.28624,
                        31.321703
                    ],
                    [
                        -89.286269,
                        31.321847
                    ],
                    [
                        -89.286293,
                        31.32194
                    ],
                    [
                        -89.286269,
                        31.32255
                    ],
                    [
                        -89.286279,
                        31.322827
                    ],
                    [
                        -89.286336,
                        31.323031
                    ],
                    [
                        -89.286488,
                        31.32347
                    ],
                    [
                        -89.286564,
                        31.323718
                    ],
                    [
                        -89.286679,
                        31.323946
                    ],
                    [
                        -89.287074,
                        31.324312
                    ],
                    [
                        -89.287549,
                        31.32472
                    ],
                    [
                        -89.288164,
                        31.325227
                    ],
                    [
                        -89.288034,
                        31.325326
                    ],
                    [
                        -89.287558,
                        31.325773
                    ],
                    [
                        -89.287108,
                        31.32618
                    ],
                    [
                        -89.286521,
                        31.326682
                    ],
                    [
                        -89.286329,
                        31.326793
                    ],
                    [
                        -89.286213,
                        31.32688
                    ],
                    [
                        -89.28608,
                        31.326985
                    ],
                    [
                        -89.285903,
                        31.327189
                    ],
                    [
                        -89.285616,
                        31.327456
                    ],
                    [
                        -89.285353,
                        31.3277
                    ],
                    [
                        -89.285353,
                        31.327719
                    ],
                    [
                        -89.285427,
                        31.327771
                    ],
                    [
                        -89.285517,
                        31.327854
                    ],
                    [
                        -89.28554,
                        31.327856
                    ],
                    [
                        -89.285578,
                        31.327832
                    ],
                    [
                        -89.285659,
                        31.327769
                    ]
                ]
            }
        }
    ]
}