{
    "type": "FeatureCollection",
    "features": [
        {
            "type": "Feature",
            "geometry": {
                "type": "Point",
                "coordinates": [
                    -89.319411,
                    31.308037
                ]
            },
            "properties": {
                "name": "Walmart @ 49",
                "stopNum": 1
            }
        },
        {
            "type": "Feature",
            "geometry": {
                "type": "Point",
                "coordinates": [
                    -89.319956,
                    31.310957
                ]
            },
            "properties": {
                "name": "On Service Rd near Cspire",
                "stopNum": 2
            }
        },
        {
            "type": "Feature",
            "geometry": {
                "type": "Point",
                "coordinates": [
                    -89.328481,
                    31.299091
                ]
            },
            "properties": {
                "name": "McInnis Loop at Greenbriar Apts",
                "stopNum": 11
            }
        },
        {
            "type": "Feature",
            "geometry": {
                "type": "Point",
                "coordinates": [
                    -89.324115,
                    31.299106
                ]
            },
            "properties": {
                "name": "McInnis Loop near Disability office",
                "stopNum": 12
            }
        },
        {
            "type": "Feature",
            "geometry": {
                "type": "Point",
                "coordinates": [
                    -89.316929,
                    31.298108
                ]
            },
            "properties": {
                "name": "Right before McInnis Loop and Country Club Rd",
                "stopNum": 13
            }
        },
        {
            "type": "Feature",
            "geometry": {
                "type": "Point",
                "coordinates": [
                    -89.31427,
                    31.302215
                ]
            },
            "properties": {
                "name": "Country Club Rd at Bonhomie Apartments",
                "stopNum": 14
            }
        },
        {
            "type": "Feature",
            "geometry": {
                "type": "Point",
                "coordinates": [
                    -89.311063,
                    31.304349
                ]
            },
            "properties": {
                "name": "Country Club Rd at Pineview Apartments",
                "stopNum": 15
            }
        },
        {
            "type": "Feature",
            "geometry": {
                "type": "Point",
                "coordinates": [
                    -89.307613,
                    31.307327
                ]
            },
            "properties": {
                "name": "Country Club Rd at the park",
                "stopNum": 16
            }
        },
        {
            "type": "Feature",
            "geometry": {
                "type": "Point",
                "coordinates": [
                    -89.304379,
                    31.310136
                ]
            },
            "properties": {
                "name": "Country Club Rd and Killingsworth Dr",
                "stopNum": 17
            }
        },
        {
            "type": "Feature",
            "geometry": {
                "type": "Point",
                "coordinates": [
                    -89.299555,
                    31.311732
                ]
            },
            "properties": {
                "name": "Dumas Av and Martin Luther King Av",
                "stopNum": 18
            }
        },
        {
            "type": "Feature",
            "geometry": {
                "type": "Point",
                "coordinates": [
                    -89.299582,
                    31.306413
                ]
            },
            "properties": {
                "name": "Martin Luther king Av and Tuscan Av",
                "stopNum": 19
            }
        },
        {
            "type": "Feature",
            "geometry": {
                "type": "Point",
                "coordinates": [
                    -89.294165,
                    31.306206
                ]
            },
            "properties": {
                "name": "William Carey Pkwy and Tuscan Ave",
                "stopNum": 20
            }
        },
        {
            "type": "Feature",
            "geometry": {
                "type": "Point",
                "coordinates": [
                    -89.318168,
                    31.30933
                ]
            },
            "properties": {
                "name": "Service Rd at Cloverleaf Center - SW side (popeye's-in prog)",
                "stopNum": 3
            }
        },
        {
            "type": "Feature",
            "geometry": {
                "type": "Point",
                "coordinates": [
                    -89.29483,
                    31.300219
                ]
            },
            "properties": {
                "name": "William Carey Pkwy at Wisteria Apartments Entrance 1",
                "stopNum": 21
            }
        },
        {
            "type": "Feature",
            "geometry": {
                "type": "Point",
                "coordinates": [
                    -89.296339,
                    31.299421
                ]
            },
            "properties": {
                "name": "William Carey Pkwy at Wisteria Apartments Entrance 3",
                "stopNum": 22
            }
        },
        {
            "type": "Feature",
            "geometry": {
                "type": "Point",
                "coordinates": [
                    -89.301531,
                    31.29926
                ]
            },
            "properties": {
                "name": "William Carey Pkwy and Dosset St",
                "stopNum": 23
            }
        },
        {
            "type": "Feature",
            "geometry": {
                "type": "Point",
                "coordinates": [
                    -89.307694,
                    31.299229
                ]
            },
            "properties": {
                "name": "William Carey Pkwy at JR (Just before entering HWY 49)",
                "stopNum": 24
            }
        },
        {
            "type": "Feature",
            "geometry": {
                "type": "Point",
                "coordinates": [
                    -89.31462,
                    31.306713
                ]
            },
            "properties": {
                "name": "Service Dr and Fred's Pharmacy",
                "stopNum": 25
            }
        },
        {
            "type": "Feature",
            "geometry": {
                "type": "Point",
                "coordinates": [
                    -89.313587,
                    31.309621
                ]
            },
            "properties": {
                "name": "Service Dr and Carriage Inn",
                "stopNum": 26
            }
        },
        {
            "type": "Feature",
            "geometry": {
                "type": "Point",
                "coordinates": [
                    -89.315338,
                    31.309199
                ]
            },
            "properties": {
                "name": "Service Rd at Cloverleaf Center - South side",
                "stopNum": 27
            }
        },
        {
            "type": "Feature",
            "geometry": {
                "type": "Point",
                "coordinates": [
                    -89.317998,
                    31.310051
                ]
            },
            "properties": {
                "name": "Service Rd at Cloverleaf Center - SW side\n",
                "stopNum": 28
            }
        },
        {
            "type": "Feature",
            "geometry": {
                "type": "Point",
                "coordinates": [
                    -89.318393,
                    31.311486
                ]
            },
            "properties": {
                "name": "Cloverleaf Mall",
                "stopNum": 29
            }
        },
        {
            "type": "Feature",
            "geometry": {
                "type": "Point",
                "coordinates": [
                    -89.313129,
                    31.311302
                ]
            },
            "properties": {
                "name": "Bartur St and Broadway St",
                "stopNum": 4
            }
        },
        {
            "type": "Feature",
            "geometry": {
                "type": "Point",
                "coordinates": [
                    -89.31356,
                    31.309798
                ]
            },
            "properties": {
                "name": "S 17th St and Service Rd",
                "stopNum": 5
            }
        },
        {
            "type": "Feature",
            "geometry": {
                "type": "Point",
                "coordinates": [
                    -89.31365,
                    31.305346
                ]
            },
            "properties": {
                "name": "Service Dr and W Pine St",
                "stopNum": 6
            }
        },
        {
            "type": "Feature",
            "geometry": {
                "type": "Point",
                "coordinates": [
                    -89.317926,
                    31.30421
                ]
            },
            "properties": {
                "name": "Lincoln Rd and Hill St (Central Sunbelt Bank)",
                "stopNum": 7
            }
        },
        {
            "type": "Feature",
            "geometry": {
                "type": "Point",
                "coordinates": [
                    -89.323064,
                    31.304226
                ]
            },
            "properties": {
                "name": "Lincoln Rd and Roosevelt Blvd (dollar general)",
                "stopNum": 8
            }
        },
        {
            "type": "Feature",
            "geometry": {
                "type": "Point",
                "coordinates": [
                    -89.331293,
                    31.303374
                ]
            },
            "properties": {
                "name": "28th Ave at Winn Dixie",
                "stopNum": 9
            }
        },
        {
            "type": "Feature",
            "geometry": {
                "type": "Point",
                "coordinates": [
                    -89.330825,
                    31.299091
                ]
            },
            "properties": {
                "name": "28th Ave and McInnis Loop",
                "stopNum": 10
            }
        },
        {
            "type": "Feature",
            "properties": {},
            "geometry": {
                "type": "LineString",
                "coordinates": [
                    [
                        -89.319388,
                        31.308036
                    ],
                    [
                        -89.319368,
                        31.307659
                    ],
                    [
                        -89.319368,
                        31.307636
                    ],
                    [
                        -89.318589,
                        31.307621
                    ],
                    [
                        -89.3186,
                        31.3084
                    ],
                    [
                        -89.318633,
                        31.308537
                    ],
                    [
                        -89.318683,
                        31.308702
                    ],
                    [
                        -89.31876,
                        31.308891
                    ],
                    [
                        -89.318837,
                        31.309009
                    ],
                    [
                        -89.318959,
                        31.309174
                    ],
                    [
                        -89.319174,
                        31.30933
                    ],
                    [
                        -89.319456,
                        31.30941
                    ],
                    [
                        -89.319893,
                        31.30942
                    ],
                    [
                        -89.321362,
                        31.309434
                    ],
                    [
                        -89.3215,
                        31.309466
                    ],
                    [
                        -89.3216,
                        31.309547
                    ],
                    [
                        -89.321633,
                        31.309589
                    ],
                    [
                        -89.321628,
                        31.310647
                    ],
                    [
                        -89.321556,
                        31.310765
                    ],
                    [
                        -89.321467,
                        31.310821
                    ],
                    [
                        -89.321224,
                        31.310916
                    ],
                    [
                        -89.320517,
                        31.311303
                    ],
                    [
                        -89.320224,
                        31.311359
                    ],
                    [
                        -89.31992,
                        31.311359
                    ],
                    [
                        -89.319876,
                        31.311359
                    ],
                    [
                        -89.319876,
                        31.310944
                    ],
                    [
                        -89.319865,
                        31.310826
                    ],
                    [
                        -89.319838,
                        31.310769
                    ],
                    [
                        -89.31978,
                        31.310696
                    ],
                    [
                        -89.3191,
                        31.310037
                    ],
                    [
                        -89.318708,
                        31.309664
                    ],
                    [
                        -89.318617,
                        31.309595
                    ],
                    [
                        -89.318392,
                        31.309448
                    ],
                    [
                        -89.318162,
                        31.309336
                    ],
                    [
                        -89.317891,
                        31.309212
                    ],
                    [
                        -89.317719,
                        31.30916
                    ],
                    [
                        -89.317362,
                        31.309061
                    ],
                    [
                        -89.31691,
                        31.308985
                    ],
                    [
                        -89.316672,
                        31.308966
                    ],
                    [
                        -89.316276,
                        31.308955
                    ],
                    [
                        -89.316106,
                        31.308966
                    ],
                    [
                        -89.315755,
                        31.309016
                    ],
                    [
                        -89.315452,
                        31.309085
                    ],
                    [
                        -89.315262,
                        31.309145
                    ],
                    [
                        -89.315063,
                        31.309206
                    ],
                    [
                        -89.314782,
                        31.30932
                    ],
                    [
                        -89.3144,
                        31.309536
                    ],
                    [
                        -89.31431,
                        31.309619
                    ],
                    [
                        -89.314307,
                        31.31132
                    ],
                    [
                        -89.313127,
                        31.311331
                    ],
                    [
                        -89.312603,
                        31.311323
                    ],
                    [
                        -89.312539,
                        31.31131
                    ],
                    [
                        -89.312428,
                        31.311247
                    ],
                    [
                        -89.312311,
                        31.31115
                    ],
                    [
                        -89.312281,
                        31.311102
                    ],
                    [
                        -89.312846,
                        31.310606
                    ],
                    [
                        -89.31347,
                        31.310057
                    ],
                    [
                        -89.313431,
                        31.309985
                    ],
                    [
                        -89.313416,
                        31.30993
                    ],
                    [
                        -89.31346,
                        31.309821
                    ],
                    [
                        -89.314089,
                        31.309236
                    ],
                    [
                        -89.314192,
                        31.309141
                    ],
                    [
                        -89.314351,
                        31.308891
                    ],
                    [
                        -89.314351,
                        31.308891
                    ],
                    [
                        -89.314626,
                        31.308211
                    ],
                    [
                        -89.314629,
                        31.308212
                    ],
                    [
                        -89.314749,
                        31.307746
                    ],
                    [
                        -89.31475,
                        31.307746
                    ],
                    [
                        -89.314784,
                        31.307358
                    ],
                    [
                        -89.314785,
                        31.30736
                    ],
                    [
                        -89.314747,
                        31.306822
                    ],
                    [
                        -89.314747,
                        31.306824
                    ],
                    [
                        -89.31461,
                        31.306171
                    ],
                    [
                        -89.314611,
                        31.306173
                    ],
                    [
                        -89.314445,
                        31.305886
                    ],
                    [
                        -89.314446,
                        31.305888
                    ],
                    [
                        -89.314378,
                        31.30582
                    ],
                    [
                        -89.314381,
                        31.30582
                    ],
                    [
                        -89.314289,
                        31.305739
                    ],
                    [
                        -89.314289,
                        31.30574
                    ],
                    [
                        -89.314102,
                        31.305618
                    ],
                    [
                        -89.314103,
                        31.305619
                    ],
                    [
                        -89.313654,
                        31.30537
                    ],
                    [
                        -89.313558,
                        31.305316
                    ],
                    [
                        -89.313558,
                        31.305316
                    ],
                    [
                        -89.314001,
                        31.304957
                    ],
                    [
                        -89.314245,
                        31.304763
                    ],
                    [
                        -89.314393,
                        31.304201
                    ],
                    [
                        -89.314398,
                        31.304175
                    ],
                    [
                        -89.316564,
                        31.30415
                    ],
                    [
                        -89.318556,
                        31.30412
                    ],
                    [
                        -89.331128,
                        31.304112
                    ],
                    [
                        -89.33121,
                        31.304098
                    ],
                    [
                        -89.331225,
                        31.303301
                    ],
                    [
                        -89.331255,
                        31.299138
                    ],
                    [
                        -89.330793,
                        31.299123
                    ],
                    [
                        -89.32848,
                        31.299142
                    ],
                    [
                        -89.325686,
                        31.299146
                    ],
                    [
                        -89.323527,
                        31.299133
                    ],
                    [
                        -89.32133,
                        31.299136
                    ],
                    [
                        -89.320942,
                        31.299088
                    ],
                    [
                        -89.320767,
                        31.299057
                    ],
                    [
                        -89.32017,
                        31.298886
                    ],
                    [
                        -89.318706,
                        31.298407
                    ],
                    [
                        -89.318343,
                        31.298296
                    ],
                    [
                        -89.317731,
                        31.298226
                    ],
                    [
                        -89.3169,
                        31.298175
                    ],
                    [
                        -89.316777,
                        31.298188
                    ],
                    [
                        -89.316855,
                        31.298537
                    ],
                    [
                        -89.316859,
                        31.298714
                    ],
                    [
                        -89.316803,
                        31.29892
                    ],
                    [
                        -89.316681,
                        31.299165
                    ],
                    [
                        -89.316306,
                        31.29965
                    ],
                    [
                        -89.315901,
                        31.300192
                    ],
                    [
                        -89.315185,
                        31.301121
                    ],
                    [
                        -89.314262,
                        31.302269
                    ],
                    [
                        -89.313631,
                        31.302837
                    ],
                    [
                        -89.313008,
                        31.30322
                    ],
                    [
                        -89.312733,
                        31.303369
                    ],
                    [
                        -89.311372,
                        31.304156
                    ],
                    [
                        -89.311097,
                        31.304365
                    ],
                    [
                        -89.309753,
                        31.305521
                    ],
                    [
                        -89.308454,
                        31.306658
                    ],
                    [
                        -89.304401,
                        31.310208
                    ],
                    [
                        -89.304386,
                        31.310215
                    ],
                    [
                        -89.303845,
                        31.309758
                    ],
                    [
                        -89.302826,
                        31.308907
                    ],
                    [
                        -89.301843,
                        31.309731
                    ],
                    [
                        -89.301246,
                        31.310254
                    ],
                    [
                        -89.29966,
                        31.311668
                    ],
                    [
                        -89.299537,
                        31.311738
                    ],
                    [
                        -89.299497,
                        31.311745
                    ],
                    [
                        -89.299474,
                        31.311738
                    ],
                    [
                        -89.299467,
                        31.311336
                    ],
                    [
                        -89.299463,
                        31.309724
                    ],
                    [
                        -89.299467,
                        31.306349
                    ],
                    [
                        -89.299467,
                        31.306175
                    ],
                    [
                        -89.299311,
                        31.306168
                    ],
                    [
                        -89.298777,
                        31.306162
                    ],
                    [
                        -89.296976,
                        31.306175
                    ],
                    [
                        -89.29459,
                        31.306181
                    ],
                    [
                        -89.294101,
                        31.306192
                    ],
                    [
                        -89.294113,
                        31.302318
                    ],
                    [
                        -89.294124,
                        31.301507
                    ],
                    [
                        -89.29422,
                        31.301078
                    ],
                    [
                        -89.29435,
                        31.300796
                    ],
                    [
                        -89.294549,
                        31.300456
                    ],
                    [
                        -89.294812,
                        31.300139
                    ],
                    [
                        -89.29528,
                        31.299791
                    ],
                    [
                        -89.295614,
                        31.299619
                    ],
                    [
                        -89.296111,
                        31.299432
                    ],
                    [
                        -89.296627,
                        31.299328
                    ],
                    [
                        -89.297204,
                        31.299284
                    ],
                    [
                        -89.298885,
                        31.29924
                    ],
                    [
                        -89.301282,
                        31.299172
                    ],
                    [
                        -89.303535,
                        31.29913
                    ],
                    [
                        -89.30581,
                        31.29913
                    ],
                    [
                        -89.307319,
                        31.299133
                    ],
                    [
                        -89.308069,
                        31.299159
                    ],
                    [
                        -89.308414,
                        31.299162
                    ],
                    [
                        -89.308566,
                        31.299239
                    ],
                    [
                        -89.309127,
                        31.299953
                    ],
                    [
                        -89.310493,
                        31.301483
                    ],
                    [
                        -89.313771,
                        31.304692
                    ],
                    [
                        -89.313811,
                        31.304806
                    ],
                    [
                        -89.313773,
                        31.305057
                    ],
                    [
                        -89.31358,
                        31.305226
                    ],
                    [
                        -89.313456,
                        31.305345
                    ],
                    [
                        -89.31355,
                        31.305366
                    ],
                    [
                        -89.313642,
                        31.305404
                    ],
                    [
                        -89.313974,
                        31.305599
                    ],
                    [
                        -89.314325,
                        31.30582
                    ],
                    [
                        -89.31441,
                        31.305906
                    ],
                    [
                        -89.314503,
                        31.306043
                    ],
                    [
                        -89.31455,
                        31.306143
                    ],
                    [
                        -89.31467,
                        31.306613
                    ],
                    [
                        -89.314702,
                        31.306793
                    ],
                    [
                        -89.314722,
                        31.307009
                    ],
                    [
                        -89.314724,
                        31.30701
                    ],
                    [
                        -89.314724,
                        31.307156
                    ],
                    [
                        -89.314724,
                        31.307157
                    ],
                    [
                        -89.314729,
                        31.307338
                    ],
                    [
                        -89.31473,
                        31.307339
                    ],
                    [
                        -89.314697,
                        31.307659
                    ],
                    [
                        -89.314697,
                        31.30766
                    ],
                    [
                        -89.314685,
                        31.307776
                    ],
                    [
                        -89.314685,
                        31.307777
                    ],
                    [
                        -89.314603,
                        31.308103
                    ],
                    [
                        -89.314603,
                        31.308104
                    ],
                    [
                        -89.314516,
                        31.308383
                    ],
                    [
                        -89.314516,
                        31.308384
                    ],
                    [
                        -89.314385,
                        31.308727
                    ],
                    [
                        -89.314385,
                        31.308728
                    ],
                    [
                        -89.314299,
                        31.308923
                    ],
                    [
                        -89.3143,
                        31.308923
                    ],
                    [
                        -89.314196,
                        31.30906
                    ],
                    [
                        -89.314196,
                        31.30906
                    ],
                    [
                        -89.313858,
                        31.309408
                    ],
                    [
                        -89.313859,
                        31.309409
                    ],
                    [
                        -89.313509,
                        31.309713
                    ],
                    [
                        -89.313511,
                        31.309715
                    ],
                    [
                        -89.313429,
                        31.309802
                    ],
                    [
                        -89.31343,
                        31.309803
                    ],
                    [
                        -89.313401,
                        31.30987
                    ],
                    [
                        -89.313402,
                        31.30987
                    ],
                    [
                        -89.31339,
                        31.309909
                    ],
                    [
                        -89.31339,
                        31.309909
                    ],
                    [
                        -89.313389,
                        31.309962
                    ],
                    [
                        -89.31339,
                        31.309962
                    ],
                    [
                        -89.313402,
                        31.310008
                    ],
                    [
                        -89.313432,
                        31.310047
                    ],
                    [
                        -89.313432,
                        31.310048
                    ],
                    [
                        -89.313507,
                        31.310091
                    ],
                    [
                        -89.313507,
                        31.310091
                    ],
                    [
                        -89.313571,
                        31.310131
                    ],
                    [
                        -89.313571,
                        31.310131
                    ],
                    [
                        -89.313658,
                        31.310148
                    ],
                    [
                        -89.313658,
                        31.310148
                    ],
                    [
                        -89.313713,
                        31.310138
                    ],
                    [
                        -89.313714,
                        31.310138
                    ],
                    [
                        -89.313788,
                        31.310096
                    ],
                    [
                        -89.313789,
                        31.310097
                    ],
                    [
                        -89.313837,
                        31.310045
                    ],
                    [
                        -89.313838,
                        31.310045
                    ],
                    [
                        -89.314259,
                        31.309669
                    ],
                    [
                        -89.314441,
                        31.309558
                    ],
                    [
                        -89.314641,
                        31.309432
                    ],
                    [
                        -89.314783,
                        31.309353
                    ],
                    [
                        -89.315117,
                        31.309225
                    ],
                    [
                        -89.315412,
                        31.309133
                    ],
                    [
                        -89.315729,
                        31.309059
                    ],
                    [
                        -89.316152,
                        31.308994
                    ],
                    [
                        -89.316483,
                        31.30899
                    ],
                    [
                        -89.316502,
                        31.30899
                    ],
                    [
                        -89.316946,
                        31.309023
                    ],
                    [
                        -89.317298,
                        31.309092
                    ],
                    [
                        -89.31766,
                        31.309174
                    ],
                    [
                        -89.318075,
                        31.309342
                    ],
                    [
                        -89.318096,
                        31.309348
                    ],
                    [
                        -89.318108,
                        31.309352
                    ],
                    [
                        -89.31807,
                        31.309413
                    ],
                    [
                        -89.318056,
                        31.309497
                    ],
                    [
                        -89.318057,
                        31.31009
                    ],
                    [
                        -89.318045,
                        31.311401
                    ],
                    [
                        -89.318351,
                        31.311418
                    ],
                    [
                        -89.319829,
                        31.311418
                    ],
                    [
                        -89.319929,
                        31.31146
                    ],
                    [
                        -89.320318,
                        31.31146
                    ],
                    [
                        -89.32058,
                        31.311369
                    ],
                    [
                        -89.321388,
                        31.310949
                    ],
                    [
                        -89.321517,
                        31.310857
                    ],
                    [
                        -89.321644,
                        31.310726
                    ],
                    [
                        -89.3217,
                        31.310519
                    ],
                    [
                        -89.321694,
                        31.31011
                    ],
                    [
                        -89.32167,
                        31.309673
                    ],
                    [
                        -89.321657,
                        31.309591
                    ],
                    [
                        -89.321637,
                        31.30954
                    ],
                    [
                        -89.321538,
                        31.309455
                    ],
                    [
                        -89.321365,
                        31.309404
                    ],
                    [
                        -89.319864,
                        31.309398
                    ],
                    [
                        -89.319851,
                        31.309384
                    ],
                    [
                        -89.319857,
                        31.309225
                    ],
                    [
                        -89.319854,
                        31.309191
                    ],
                    [
                        -89.319794,
                        31.309075
                    ],
                    [
                        -89.319688,
                        31.308959
                    ],
                    [
                        -89.319542,
                        31.308814
                    ],
                    [
                        -89.319442,
                        31.308704
                    ],
                    [
                        -89.319396,
                        31.308647
                    ],
                    [
                        -89.319386,
                        31.308087
                    ],
                    [
                        -89.319389,
                        31.308036
                    ]
                ]
            }
        }
    ]
}